<?xml version="1.0" encoding="UTF-8"?><gpx creator="Wikiloc - http://www.wikiloc.com" version="1.1" xmlns="http://www.topografix.com/GPX/1/1" xmlns:xsi="http://www.w3.org/2001/XMLSchema-instance" xsi:schemaLocation="http://www.topografix.com/GPX/1/1 http://www.topografix.com/GPX/1/1/gpx.xsd"><wpt lat="7.197423" lon="-72.459455"><ele>1287.621</ele><name><![CDATA[Camino a la cascada]]></name><cmt><![CDATA[Camino a la cascada]]></cmt><desc><![CDATA[]]></desc><type>10</type></wpt><wpt lat="7.197803" lon="-72.461135"><ele>1294.691</ele><name><![CDATA[Ya casi lleganos]]></name><cmt><![CDATA[Ya casi lleganos]]></cmt><desc><![CDATA[]]></desc><type>36</type></wpt><wpt lat="7.197242" lon="-72.463067"><ele>1342.646</ele><name><![CDATA[Llegada cascada el chorreron]]></name><cmt><![CDATA[Llegada cascada el chorreron]]></cmt><desc><![CDATA[]]></desc><type>95</type></wpt><trk><name><![CDATA[Cascada el chorren, Labateca]]></name><cmt><![CDATA[Magnifica cascada ]]></cmt><desc><![CDATA[Magnifica cascada ]]></desc><trkseg><trkpt lat="7.202502" lon="-72.44331"><ele>1151.642</ele><time>2026-08-22T18:08:45Z</time></trkpt><trkpt lat="7.202568" lon="-72.443438"><ele>1154.848</ele><time>2026-08-22T18:08:53Z</time></trkpt><trkpt lat="7.204618" lon="-72.44254"><ele>1143.940</ele><time>2026-08-22T18:09:58Z</time></trkpt><trkpt lat="7.204788" lon="-72.442375"><ele>1143.916</ele><time>2026-08-22T18:10:04Z</time></trkpt><trkpt lat="7.205232" lon="-72.442298"><ele>1144.609</ele><time>2026-08-22T18:10:15Z</time></trkpt><trkpt lat="7.205497" lon="-72.442373"><ele>1144.613</ele><time>2026-08-22T18:10:22Z</time></trkpt><trkpt lat="7.205715" lon="-72.44279"><ele>1142.985</ele><time>2026-08-22T18:10:31Z</time></trkpt><trkpt lat="7.206008" lon="-72.442963"><ele>1139.876</ele><time>2026-08-22T18:10:37Z</time></trkpt><trkpt lat="7.206263" lon="-72.442938"><ele>1138.624</ele><time>2026-08-22T18:10:41Z</time></trkpt><trkpt lat="7.2066" lon="-72.442722"><ele>1137.715</ele><time>2026-08-22T18:10:47Z</time></trkpt><trkpt lat="7.207413" lon="-72.442747"><ele>1136.885</ele><time>2026-08-22T18:10:57Z</time></trkpt><trkpt lat="7.207972" lon="-72.442657"><ele>1135.191</ele><time>2026-08-22T18:11:04Z</time></trkpt><trkpt lat="7.208605" lon="-72.44279"><ele>1131.670</ele><time>2026-08-22T18:11:11Z</time></trkpt><trkpt lat="7.209073" lon="-72.44304"><ele>1128.796</ele><time>2026-08-22T18:11:18Z</time></trkpt><trkpt lat="7.209387" lon="-72.443063"><ele>1127.097</ele><time>2026-08-22T18:11:23Z</time></trkpt><trkpt lat="7.209703" lon="-72.443222"><ele>1124.617</ele><time>2026-08-22T18:11:28Z</time></trkpt><trkpt lat="7.210842" lon="-72.443365"><ele>1116.992</ele><time>2026-08-22T18:11:43Z</time></trkpt><trkpt lat="7.21145" lon="-72.443503"><ele>1115.987</ele><time>2026-08-22T18:11:50Z</time></trkpt><trkpt lat="7.212058" lon="-72.443812"><ele>1111.200</ele><time>2026-08-22T18:11:58Z</time></trkpt><trkpt lat="7.213042" lon="-72.44419"><ele>1110.086</ele><time>2026-08-22T18:12:09Z</time></trkpt><trkpt lat="7.213527" lon="-72.444645"><ele>1108.097</ele><time>2026-08-22T18:12:19Z</time></trkpt><trkpt lat="7.213703" lon="-72.44464"><ele>1106.445</ele><time>2026-08-22T18:12:23Z</time></trkpt><trkpt lat="7.214637" lon="-72.444247"><ele>1102.762</ele><time>2026-08-22T18:12:47Z</time></trkpt><trkpt lat="7.214672" lon="-72.444292"><ele>1108.758</ele><time>2026-08-22T18:13:30Z</time></trkpt><trkpt lat="7.214477" lon="-72.444305"><ele>1109.109</ele><time>2026-08-22T18:15:44Z</time></trkpt><trkpt lat="7.213708" lon="-72.444665"><ele>1109.333</ele><time>2026-08-22T18:16:02Z</time></trkpt><trkpt lat="7.213613" lon="-72.444783"><ele>1109.348</ele><time>2026-08-22T18:16:07Z</time></trkpt><trkpt lat="7.214148" lon="-72.445553"><ele>1115.222</ele><time>2026-08-22T18:16:30Z</time></trkpt><trkpt lat="7.214372" lon="-72.446108"><ele>1121.694</ele><time>2026-08-22T18:16:43Z</time></trkpt><trkpt lat="7.2144" lon="-72.44614"><ele>1124.850</ele><time>2026-08-22T18:16:45Z</time></trkpt><trkpt lat="7.214357" lon="-72.445955"><ele>1125.360</ele><time>2026-08-22T18:16:48Z</time></trkpt><trkpt lat="7.214605" lon="-72.446458"><ele>1127.589</ele><time>2026-08-22T18:17:00Z</time></trkpt><trkpt lat="7.214805" lon="-72.446687"><ele>1129.547</ele><time>2026-08-22T18:17:09Z</time></trkpt><trkpt lat="7.214815" lon="-72.446945"><ele>1131.109</ele><time>2026-08-22T18:17:16Z</time></trkpt><trkpt lat="7.214703" lon="-72.44718"><ele>1132.189</ele><time>2026-08-22T18:17:19Z</time></trkpt><trkpt lat="7.214793" lon="-72.447413"><ele>1143.409</ele><time>2026-08-22T18:17:29Z</time></trkpt><trkpt lat="7.214767" lon="-72.447605"><ele>1148.419</ele><time>2026-08-22T18:17:36Z</time></trkpt><trkpt lat="7.2146" lon="-72.447717"><ele>1150.838</ele><time>2026-08-22T18:17:43Z</time></trkpt><trkpt lat="7.214655" lon="-72.447545"><ele>1150.914</ele><time>2026-08-22T18:17:44Z</time></trkpt><trkpt lat="7.214502" lon="-72.447473"><ele>1151.364</ele><time>2026-08-22T18:17:49Z</time></trkpt><trkpt lat="7.213822" lon="-72.447518"><ele>1152.833</ele><time>2026-08-22T18:18:03Z</time></trkpt><trkpt lat="7.213583" lon="-72.447478"><ele>1152.809</ele><time>2026-08-22T18:18:08Z</time></trkpt><trkpt lat="7.21303" lon="-72.446942"><ele>1159.563</ele><time>2026-08-22T18:18:28Z</time></trkpt><trkpt lat="7.212943" lon="-72.447055"><ele>1162.210</ele><time>2026-08-22T18:18:35Z</time></trkpt><trkpt lat="7.212935" lon="-72.447347"><ele>1176.117</ele><time>2026-08-22T18:18:58Z</time></trkpt><trkpt lat="7.212767" lon="-72.447603"><ele>1177.424</ele><time>2026-08-22T18:19:08Z</time></trkpt><trkpt lat="7.212667" lon="-72.447583"><ele>1177.566</ele><time>2026-08-22T18:19:11Z</time></trkpt><trkpt lat="7.212385" lon="-72.447088"><ele>1181.072</ele><time>2026-08-22T18:19:25Z</time></trkpt><trkpt lat="7.212247" lon="-72.447018"><ele>1185.987</ele><time>2026-08-22T18:19:29Z</time></trkpt><trkpt lat="7.212105" lon="-72.44716"><ele>1190.569</ele><time>2026-08-22T18:19:34Z</time></trkpt><trkpt lat="7.212133" lon="-72.447683"><ele>1204.336</ele><time>2026-08-22T18:19:47Z</time></trkpt><trkpt lat="7.212042" lon="-72.447667"><ele>1205.828</ele><time>2026-08-22T18:19:50Z</time></trkpt><trkpt lat="7.211937" lon="-72.447497"><ele>1208.083</ele><time>2026-08-22T18:19:54Z</time></trkpt><trkpt lat="7.211768" lon="-72.447393"><ele>1209.222</ele><time>2026-08-22T18:19:58Z</time></trkpt><trkpt lat="7.211563" lon="-72.447407"><ele>1211.288</ele><time>2026-08-22T18:20:03Z</time></trkpt><trkpt lat="7.211362" lon="-72.447518"><ele>1215.684</ele><time>2026-08-22T18:20:09Z</time></trkpt><trkpt lat="7.211248" lon="-72.447847"><ele>1217.627</ele><time>2026-08-22T18:20:18Z</time></trkpt><trkpt lat="7.211305" lon="-72.448308"><ele>1218.091</ele><time>2026-08-22T18:20:31Z</time></trkpt><trkpt lat="7.211863" lon="-72.449035"><ele>1213.909</ele><time>2026-08-22T18:20:51Z</time></trkpt><trkpt lat="7.213218" lon="-72.449485"><ele>1205.682</ele><time>2026-08-22T18:21:20Z</time></trkpt><trkpt lat="7.213668" lon="-72.449473"><ele>1201.109</ele><time>2026-08-22T18:21:30Z</time></trkpt><trkpt lat="7.213777" lon="-72.449515"><ele>1201.140</ele><time>2026-08-22T18:21:33Z</time></trkpt><trkpt lat="7.213805" lon="-72.449603"><ele>1201.148</ele><time>2026-08-22T18:21:36Z</time></trkpt><trkpt lat="7.213507" lon="-72.449905"><ele>1203.866</ele><time>2026-08-22T18:21:46Z</time></trkpt><trkpt lat="7.212432" lon="-72.450555"><ele>1204.970</ele><time>2026-08-22T18:22:18Z</time></trkpt><trkpt lat="7.21201" lon="-72.451095"><ele>1212.609</ele><time>2026-08-22T18:22:35Z</time></trkpt><trkpt lat="7.211867" lon="-72.451367"><ele>1215.222</ele><time>2026-08-22T18:22:42Z</time></trkpt><trkpt lat="7.210573" lon="-72.452267"><ele>1210.870</ele><time>2026-08-22T18:23:25Z</time></trkpt><trkpt lat="7.210097" lon="-72.453013"><ele>1228.828</ele><time>2026-08-22T18:23:46Z</time></trkpt><trkpt lat="7.209602" lon="-72.453142"><ele>1230.286</ele><time>2026-08-22T18:23:56Z</time></trkpt><trkpt lat="7.208643" lon="-72.453547"><ele>1226.820</ele><time>2026-08-22T18:24:21Z</time></trkpt><trkpt lat="7.208702" lon="-72.453613"><ele>1225.090</ele><time>2026-08-22T18:24:26Z</time></trkpt><trkpt lat="7.20895" lon="-72.453592"><ele>1220.921</ele><time>2026-08-22T18:24:33Z</time></trkpt><trkpt lat="7.20937" lon="-72.453717"><ele>1211.885</ele><time>2026-08-22T18:24:42Z</time></trkpt><trkpt lat="7.209892" lon="-72.453628"><ele>1202.337</ele><time>2026-08-22T18:24:53Z</time></trkpt><trkpt lat="7.209968" lon="-72.45368"><ele>1198.711</ele><time>2026-08-22T18:24:57Z</time></trkpt><trkpt lat="7.20924" lon="-72.454075"><ele>1184.728</ele><time>2026-08-22T18:25:19Z</time></trkpt><trkpt lat="7.208468" lon="-72.454152"><ele>1169.507</ele><time>2026-08-22T18:25:35Z</time></trkpt><trkpt lat="7.208208" lon="-72.454238"><ele>1161.647</ele><time>2026-08-22T18:25:43Z</time></trkpt><trkpt lat="7.207867" lon="-72.454498"><ele>1153.630</ele><time>2026-08-22T18:25:53Z</time></trkpt><trkpt lat="7.20753" lon="-72.454615"><ele>1145.420</ele><time>2026-08-22T18:26:03Z</time></trkpt><trkpt lat="7.207553" lon="-72.454692"><ele>1143.633</ele><time>2026-08-22T18:26:08Z</time></trkpt><trkpt lat="7.207853" lon="-72.454798"><ele>1141.166</ele><time>2026-08-22T18:26:18Z</time></trkpt><trkpt lat="7.207872" lon="-72.45491"><ele>1140.473</ele><time>2026-08-22T18:26:28Z</time></trkpt><trkpt lat="7.207678" lon="-72.455002"><ele>1140.964</ele><time>2026-08-22T18:26:43Z</time></trkpt><trkpt lat="7.207625" lon="-72.454977"><ele>1140.715</ele><time>2026-08-22T18:27:03Z</time></trkpt><trkpt lat="7.207402" lon="-72.455538"><ele>1143.267</ele><time>2026-08-22T18:28:01Z</time></trkpt><trkpt lat="7.207112" lon="-72.455283"><ele>1145.345</ele><time>2026-08-22T18:28:43Z</time></trkpt><trkpt lat="7.20676" lon="-72.455163"><ele>1145.492</ele><time>2026-08-22T18:29:00Z</time></trkpt><trkpt lat="7.206582" lon="-72.454995"><ele>1145.717</ele><time>2026-08-22T18:29:17Z</time></trkpt><trkpt lat="7.206503" lon="-72.454985"><ele>1144.010</ele><time>2026-08-22T18:30:09Z</time></trkpt><trkpt lat="7.206265" lon="-72.455173"><ele>1143.963</ele><time>2026-08-22T18:30:59Z</time></trkpt><trkpt lat="7.20612" lon="-72.455167"><ele>1140.161</ele><time>2026-08-22T18:31:28Z</time></trkpt><trkpt lat="7.205957" lon="-72.455248"><ele>1140.181</ele><time>2026-08-22T18:31:45Z</time></trkpt><trkpt lat="7.206247" lon="-72.45531"><ele>1140.124</ele><time>2026-08-22T18:31:57Z</time></trkpt><trkpt lat="7.206387" lon="-72.455458"><ele>1140.162</ele><time>2026-08-22T18:32:00Z</time></trkpt><trkpt lat="7.206237" lon="-72.455298"><ele>1140.182</ele><time>2026-08-22T18:32:02Z</time></trkpt><trkpt lat="7.206105" lon="-72.455342"><ele>1147.756</ele><time>2026-08-22T18:32:18Z</time></trkpt><trkpt lat="7.206153" lon="-72.455297"><ele>1147.897</ele><time>2026-08-22T18:32:21Z</time></trkpt><trkpt lat="7.206142" lon="-72.45516"><ele>1148.070</ele><time>2026-08-22T18:32:31Z</time></trkpt><trkpt lat="7.206043" lon="-72.455293"><ele>1147.986</ele><time>2026-08-22T18:32:54Z</time></trkpt><trkpt lat="7.205957" lon="-72.45528"><ele>1147.087</ele><time>2026-08-22T18:33:03Z</time></trkpt><trkpt lat="7.205978" lon="-72.455163"><ele>1145.879</ele><time>2026-08-22T18:33:19Z</time></trkpt><trkpt lat="7.205927" lon="-72.455213"><ele>1145.861</ele><time>2026-08-22T18:33:34Z</time></trkpt><trkpt lat="7.205958" lon="-72.455302"><ele>1146.615</ele><time>2026-08-22T18:33:39Z</time></trkpt><trkpt lat="7.206025" lon="-72.455267"><ele>1148.153</ele><time>2026-08-22T18:33:44Z</time></trkpt><trkpt lat="7.205888" lon="-72.455283"><ele>1149.149</ele><time>2026-08-22T18:33:55Z</time></trkpt><trkpt lat="7.20579" lon="-72.455032"><ele>1149.116</ele><time>2026-08-22T18:34:03Z</time></trkpt><trkpt lat="7.205807" lon="-72.455168"><ele>1149.129</ele><time>2026-08-22T18:34:07Z</time></trkpt><trkpt lat="7.205877" lon="-72.45517"><ele>1149.180</ele><time>2026-08-22T18:34:14Z</time></trkpt><trkpt lat="7.205917" lon="-72.455337"><ele>1148.609</ele><time>2026-08-22T18:34:27Z</time></trkpt><trkpt lat="7.205982" lon="-72.455182"><ele>1148.757</ele><time>2026-08-22T18:34:51Z</time></trkpt><trkpt lat="7.20607" lon="-72.45527"><ele>1148.939</ele><time>2026-08-22T18:34:58Z</time></trkpt><trkpt lat="7.205895" lon="-72.455167"><ele>1148.901</ele><time>2026-08-22T18:35:20Z</time></trkpt><trkpt lat="7.205905" lon="-72.455118"><ele>1148.921</ele><time>2026-08-22T18:35:21Z</time></trkpt><trkpt lat="7.205902" lon="-72.455323"><ele>1149.052</ele><time>2026-08-22T18:35:35Z</time></trkpt><trkpt lat="7.205992" lon="-72.455377"><ele>1151.092</ele><time>2026-08-22T18:35:47Z</time></trkpt><trkpt lat="7.206007" lon="-72.455287"><ele>1151.045</ele><time>2026-08-22T18:35:55Z</time></trkpt><trkpt lat="7.206003" lon="-72.455395"><ele>1151.057</ele><time>2026-08-22T18:36:04Z</time></trkpt><trkpt lat="7.205898" lon="-72.45529"><ele>1149.194</ele><time>2026-08-22T18:36:20Z</time></trkpt><trkpt lat="7.205915" lon="-72.455347"><ele>1149.015</ele><time>2026-08-22T18:36:29Z</time></trkpt><trkpt lat="7.20598" lon="-72.455238"><ele>1148.778</ele><time>2026-08-22T18:36:41Z</time></trkpt><trkpt lat="7.205923" lon="-72.455238"><ele>1148.766</ele><time>2026-08-22T18:36:45Z</time></trkpt><trkpt lat="7.205847" lon="-72.455332"><ele>1148.246</ele><time>2026-08-22T18:37:01Z</time></trkpt><trkpt lat="7.205852" lon="-72.455423"><ele>1148.253</ele><time>2026-08-22T18:37:05Z</time></trkpt><trkpt lat="7.205782" lon="-72.455003"><ele>1150.276</ele><time>2026-08-22T18:37:44Z</time></trkpt><trkpt lat="7.205873" lon="-72.455092"><ele>1150.909</ele><time>2026-08-22T18:37:53Z</time></trkpt><trkpt lat="7.205877" lon="-72.455258"><ele>1151.253</ele><time>2026-08-22T18:38:02Z</time></trkpt><trkpt lat="7.205958" lon="-72.455055"><ele>1151.671</ele><time>2026-08-22T18:38:17Z</time></trkpt><trkpt lat="7.205892" lon="-72.455137"><ele>1152.176</ele><time>2026-08-22T18:38:21Z</time></trkpt><trkpt lat="7.205885" lon="-72.455275"><ele>1152.209</ele><time>2026-08-22T18:38:25Z</time></trkpt><trkpt lat="7.205823" lon="-72.455325"><ele>1152.415</ele><time>2026-08-22T18:38:39Z</time></trkpt><trkpt lat="7.205827" lon="-72.455247"><ele>1152.409</ele><time>2026-08-22T18:38:47Z</time></trkpt><trkpt lat="7.205815" lon="-72.455305"><ele>1152.471</ele><time>2026-08-22T18:38:51Z</time></trkpt><trkpt lat="7.205907" lon="-72.455238"><ele>1152.286</ele><time>2026-08-22T18:39:02Z</time></trkpt><trkpt lat="7.205943" lon="-72.455283"><ele>1152.267</ele><time>2026-08-22T18:39:10Z</time></trkpt><trkpt lat="7.205855" lon="-72.455247"><ele>1152.267</ele><time>2026-08-22T18:39:21Z</time></trkpt><trkpt lat="7.205822" lon="-72.455358"><ele>1152.109</ele><time>2026-08-22T18:39:26Z</time></trkpt><trkpt lat="7.20586" lon="-72.455417"><ele>1152.175</ele><time>2026-08-22T18:39:35Z</time></trkpt><trkpt lat="7.20581" lon="-72.455483"><ele>1152.109</ele><time>2026-08-22T18:39:53Z</time></trkpt><trkpt lat="7.205905" lon="-72.455445"><ele>1152.109</ele><time>2026-08-22T18:40:05Z</time></trkpt><trkpt lat="7.205912" lon="-72.455503"><ele>1152.173</ele><time>2026-08-22T18:40:14Z</time></trkpt><trkpt lat="7.205833" lon="-72.455437"><ele>1152.183</ele><time>2026-08-22T18:40:20Z</time></trkpt><trkpt lat="7.205942" lon="-72.455378"><ele>1151.906</ele><time>2026-08-22T18:40:28Z</time></trkpt><trkpt lat="7.205925" lon="-72.455268"><ele>1151.162</ele><time>2026-08-22T18:40:51Z</time></trkpt><trkpt lat="7.205855" lon="-72.455297"><ele>1151.007</ele><time>2026-08-22T18:40:54Z</time></trkpt><trkpt lat="7.205802" lon="-72.455253"><ele>1151.065</ele><time>2026-08-22T18:41:02Z</time></trkpt><trkpt lat="7.205832" lon="-72.455348"><ele>1149.883</ele><time>2026-08-22T18:41:27Z</time></trkpt><trkpt lat="7.205772" lon="-72.455285"><ele>1149.277</ele><time>2026-08-22T18:41:48Z</time></trkpt><trkpt lat="7.205922" lon="-72.455423"><ele>1149.123</ele><time>2026-08-22T18:42:12Z</time></trkpt><trkpt lat="7.20594" lon="-72.455273"><ele>1149.062</ele><time>2026-08-22T18:42:21Z</time></trkpt><trkpt lat="7.20591" lon="-72.455345"><ele>1149.108</ele><time>2026-08-22T18:42:32Z</time></trkpt><trkpt lat="7.205818" lon="-72.455292"><ele>1149.251</ele><time>2026-08-22T18:42:47Z</time></trkpt><trkpt lat="7.205832" lon="-72.455328"><ele>1149.267</ele><time>2026-08-22T18:42:55Z</time></trkpt><trkpt lat="7.205945" lon="-72.455292"><ele>1149.379</ele><time>2026-08-22T18:43:09Z</time></trkpt><trkpt lat="7.205798" lon="-72.45519"><ele>1151.281</ele><time>2026-08-22T18:43:22Z</time></trkpt><trkpt lat="7.205765" lon="-72.455245"><ele>1151.724</ele><time>2026-08-22T18:43:29Z</time></trkpt><trkpt lat="7.205842" lon="-72.455188"><ele>1152.536</ele><time>2026-08-22T18:43:44Z</time></trkpt><trkpt lat="7.205863" lon="-72.455277"><ele>1152.623</ele><time>2026-08-22T18:43:47Z</time></trkpt><trkpt lat="7.205957" lon="-72.455182"><ele>1152.768</ele><time>2026-08-22T18:44:03Z</time></trkpt><trkpt lat="7.205732" lon="-72.455402"><ele>1152.223</ele><time>2026-08-22T18:44:37Z</time></trkpt><trkpt lat="7.20554" lon="-72.455408"><ele>1152.054</ele><time>2026-08-22T18:44:51Z</time></trkpt><trkpt lat="7.20547" lon="-72.455328"><ele>1151.998</ele><time>2026-08-22T18:45:01Z</time></trkpt><trkpt lat="7.205407" lon="-72.455558"><ele>1151.730</ele><time>2026-08-22T18:45:20Z</time></trkpt><trkpt lat="7.205197" lon="-72.455548"><ele>1151.140</ele><time>2026-08-22T18:45:48Z</time></trkpt><trkpt lat="7.205205" lon="-72.455643"><ele>1151.077</ele><time>2026-08-22T18:45:54Z</time></trkpt><trkpt lat="7.20504" lon="-72.455423"><ele>1151.045</ele><time>2026-08-22T18:46:14Z</time></trkpt><trkpt lat="7.204848" lon="-72.455363"><ele>1150.974</ele><time>2026-08-22T18:46:32Z</time></trkpt><trkpt lat="7.204698" lon="-72.455188"><ele>1150.162</ele><time>2026-08-22T18:46:55Z</time></trkpt><trkpt lat="7.204703" lon="-72.455262"><ele>1150.198</ele><time>2026-08-22T18:47:00Z</time></trkpt><trkpt lat="7.2049" lon="-72.455345"><ele>1150.050</ele><time>2026-08-22T18:47:16Z</time></trkpt><trkpt lat="7.2047" lon="-72.455322"><ele>1150.531</ele><time>2026-08-22T18:47:34Z</time></trkpt><trkpt lat="7.204573" lon="-72.455205"><ele>1150.627</ele><time>2026-08-22T18:47:43Z</time></trkpt><trkpt lat="7.204632" lon="-72.455207"><ele>1150.848</ele><time>2026-08-22T18:47:47Z</time></trkpt><trkpt lat="7.204287" lon="-72.455145"><ele>1152.559</ele><time>2026-08-22T18:48:23Z</time></trkpt><trkpt lat="7.204117" lon="-72.455207"><ele>1154.344</ele><time>2026-08-22T18:48:40Z</time></trkpt><trkpt lat="7.204008" lon="-72.455403"><ele>1156.545</ele><time>2026-08-22T18:49:04Z</time></trkpt><trkpt lat="7.203902" lon="-72.455468"><ele>1161.526</ele><time>2026-08-22T18:49:26Z</time></trkpt><trkpt lat="7.203375" lon="-72.455562"><ele>1165.707</ele><time>2026-08-22T18:50:21Z</time></trkpt><trkpt lat="7.202372" lon="-72.455947"><ele>1172.448</ele><time>2026-08-22T18:52:11Z</time></trkpt><trkpt lat="7.202243" lon="-72.456108"><ele>1170.372</ele><time>2026-08-22T18:52:32Z</time></trkpt><trkpt lat="7.202112" lon="-72.456138"><ele>1170.697</ele><time>2026-08-22T18:52:52Z</time></trkpt><trkpt lat="7.201923" lon="-72.456317"><ele>1171.708</ele><time>2026-08-22T18:53:18Z</time></trkpt><trkpt lat="7.201675" lon="-72.456337"><ele>1176.253</ele><time>2026-08-22T18:53:44Z</time></trkpt><trkpt lat="7.20159" lon="-72.456433"><ele>1180.277</ele><time>2026-08-22T18:54:00Z</time></trkpt><trkpt lat="7.20152" lon="-72.456405"><ele>1181.173</ele><time>2026-08-22T18:54:29Z</time></trkpt><trkpt lat="7.201525" lon="-72.45646"><ele>1182.399</ele><time>2026-08-22T18:54:47Z</time></trkpt><trkpt lat="7.201228" lon="-72.45675"><ele>1183.215</ele><time>2026-08-22T18:55:30Z</time></trkpt><trkpt lat="7.200858" lon="-72.456803"><ele>1185.220</ele><time>2026-08-22T18:56:11Z</time></trkpt><trkpt lat="7.200648" lon="-72.457048"><ele>1189.727</ele><time>2026-08-22T18:56:50Z</time></trkpt><trkpt lat="7.200518" lon="-72.457063"><ele>1193.617</ele><time>2026-08-22T18:57:06Z</time></trkpt><trkpt lat="7.20038" lon="-72.456982"><ele>1195.609</ele><time>2026-08-22T18:57:31Z</time></trkpt><trkpt lat="7.200297" lon="-72.457075"><ele>1195.707</ele><time>2026-08-22T18:57:49Z</time></trkpt><trkpt lat="7.1995" lon="-72.457478"><ele>1184.513</ele><time>2026-08-22T18:59:33Z</time></trkpt><trkpt lat="7.199008" lon="-72.457458"><ele>1185.091</ele><time>2026-08-22T19:00:18Z</time></trkpt><trkpt lat="7.198622" lon="-72.45767"><ele>1185.864</ele><time>2026-08-22T19:01:04Z</time></trkpt><trkpt lat="7.198467" lon="-72.457897"><ele>1184.165</ele><time>2026-08-22T19:01:46Z</time></trkpt><trkpt lat="7.198665" lon="-72.458048"><ele>1184.765</ele><time>2026-08-22T19:02:54Z</time></trkpt><trkpt lat="7.198622" lon="-72.45805"><ele>1184.850</ele><time>2026-08-22T19:03:01Z</time></trkpt><trkpt lat="7.198737" lon="-72.458063"><ele>1184.813</ele><time>2026-08-22T19:03:31Z</time></trkpt><trkpt lat="7.198588" lon="-72.458167"><ele>1188.217</ele><time>2026-08-22T19:04:02Z</time></trkpt><trkpt lat="7.198807" lon="-72.458245"><ele>1197.026</ele><time>2026-08-22T19:05:20Z</time></trkpt><trkpt lat="7.198652" lon="-72.458333"><ele>1201.536</ele><time>2026-08-22T19:06:00Z</time></trkpt><trkpt lat="7.198743" lon="-72.458523"><ele>1209.009</ele><time>2026-08-22T19:07:09Z</time></trkpt><trkpt lat="7.198812" lon="-72.458493"><ele>1208.315</ele><time>2026-08-22T19:07:29Z</time></trkpt><trkpt lat="7.19881" lon="-72.458563"><ele>1208.280</ele><time>2026-08-22T19:07:47Z</time></trkpt><trkpt lat="7.198888" lon="-72.45858"><ele>1207.939</ele><time>2026-08-22T19:08:05Z</time></trkpt><trkpt lat="7.198847" lon="-72.458653"><ele>1207.549</ele><time>2026-08-22T19:08:24Z</time></trkpt><trkpt lat="7.198747" lon="-72.458672"><ele>1222.409</ele><time>2026-08-22T19:09:05Z</time></trkpt><trkpt lat="7.198713" lon="-72.458812"><ele>1223.061</ele><time>2026-08-22T19:09:27Z</time></trkpt><trkpt lat="7.198467" lon="-72.458923"><ele>1227.275</ele><time>2026-08-22T19:11:01Z</time></trkpt><trkpt lat="7.198412" lon="-72.45886"><ele>1227.065</ele><time>2026-08-22T19:11:20Z</time></trkpt><trkpt lat="7.198515" lon="-72.458875"><ele>1229.443</ele><time>2026-08-22T19:11:37Z</time></trkpt><trkpt lat="7.198395" lon="-72.458942"><ele>1234.522</ele><time>2026-08-22T19:12:01Z</time></trkpt><trkpt lat="7.198427" lon="-72.45912"><ele>1236.956</ele><time>2026-08-22T19:12:37Z</time></trkpt><trkpt lat="7.198338" lon="-72.459012"><ele>1235.015</ele><time>2026-08-22T19:12:53Z</time></trkpt><trkpt lat="7.198453" lon="-72.459073"><ele>1232.382</ele><time>2026-08-22T19:13:17Z</time></trkpt><trkpt lat="7.198375" lon="-72.459065"><ele>1231.097</ele><time>2026-08-22T19:13:43Z</time></trkpt><trkpt lat="7.198297" lon="-72.459138"><ele>1228.724</ele><time>2026-08-22T19:14:02Z</time></trkpt><trkpt lat="7.198177" lon="-72.459055"><ele>1228.576</ele><time>2026-08-22T19:14:31Z</time></trkpt><trkpt lat="7.197973" lon="-72.459133"><ele>1228.510</ele><time>2026-08-22T19:15:20Z</time></trkpt><trkpt lat="7.197855" lon="-72.459132"><ele>1234.771</ele><time>2026-08-22T19:16:06Z</time></trkpt><trkpt lat="7.197862" lon="-72.459085"><ele>1236.668</ele><time>2026-08-22T19:16:21Z</time></trkpt><trkpt lat="7.197845" lon="-72.459163"><ele>1239.311</ele><time>2026-08-22T19:16:45Z</time></trkpt><trkpt lat="7.197812" lon="-72.459082"><ele>1239.418</ele><time>2026-08-22T19:17:14Z</time></trkpt><trkpt lat="7.197927" lon="-72.459103"><ele>1245.609</ele><time>2026-08-22T19:17:50Z</time></trkpt><trkpt lat="7.197897" lon="-72.45916"><ele>1258.509</ele><time>2026-08-22T19:18:21Z</time></trkpt><trkpt lat="7.197768" lon="-72.45915"><ele>1265.864</ele><time>2026-08-22T19:19:06Z</time></trkpt><trkpt lat="7.197825" lon="-72.459263"><ele>1270.445</ele><time>2026-08-22T19:19:26Z</time></trkpt><trkpt lat="7.197703" lon="-72.459243"><ele>1270.770</ele><time>2026-08-22T19:19:53Z</time></trkpt><trkpt lat="7.197633" lon="-72.45932"><ele>1271.564</ele><time>2026-08-22T19:20:23Z</time></trkpt><trkpt lat="7.197585" lon="-72.459285"><ele>1273.542</ele><time>2026-08-22T19:20:31Z</time></trkpt><trkpt lat="7.197603" lon="-72.459325"><ele>1274.509</ele><time>2026-08-22T19:20:58Z</time></trkpt><trkpt lat="7.197402" lon="-72.459462"><ele>1287.721</ele><time>2026-08-22T19:23:06Z</time></trkpt><trkpt lat="7.197498" lon="-72.459435"><ele>1289.009</ele><time>2026-08-22T19:23:38Z</time></trkpt><trkpt lat="7.197608" lon="-72.459505"><ele>1287.594</ele><time>2026-08-22T19:24:18Z</time></trkpt><trkpt lat="7.197552" lon="-72.459853"><ele>1292.415</ele><time>2026-08-22T19:25:29Z</time></trkpt><trkpt lat="7.197587" lon="-72.459888"><ele>1300.060</ele><time>2026-08-22T19:25:59Z</time></trkpt><trkpt lat="7.197557" lon="-72.459852"><ele>1300.388</ele><time>2026-08-22T19:26:34Z</time></trkpt><trkpt lat="7.19754" lon="-72.459905"><ele>1300.997</ele><time>2026-08-22T19:27:04Z</time></trkpt><trkpt lat="7.19761" lon="-72.459863"><ele>1306.817</ele><time>2026-08-22T19:30:20Z</time></trkpt><trkpt lat="7.197497" lon="-72.459932"><ele>1306.325</ele><time>2026-08-22T19:30:40Z</time></trkpt><trkpt lat="7.197582" lon="-72.460008"><ele>1305.469</ele><time>2026-08-22T19:31:14Z</time></trkpt><trkpt lat="7.197512" lon="-72.46008"><ele>1302.249</ele><time>2026-08-22T19:31:38Z</time></trkpt><trkpt lat="7.197613" lon="-72.460237"><ele>1298.983</ele><time>2026-08-22T19:32:21Z</time></trkpt><trkpt lat="7.197558" lon="-72.460378"><ele>1296.026</ele><time>2026-08-22T19:32:56Z</time></trkpt><trkpt lat="7.197582" lon="-72.460458"><ele>1295.609</ele><time>2026-08-22T19:33:04Z</time></trkpt><trkpt lat="7.19772" lon="-72.460482"><ele>1294.619</ele><time>2026-08-22T19:33:21Z</time></trkpt><trkpt lat="7.197698" lon="-72.460705"><ele>1289.859</ele><time>2026-08-22T19:33:54Z</time></trkpt><trkpt lat="7.197852" lon="-72.46103"><ele>1287.558</ele><time>2026-08-22T19:34:32Z</time></trkpt><trkpt lat="7.197867" lon="-72.460985"><ele>1287.575</ele><time>2026-08-22T19:34:40Z</time></trkpt><trkpt lat="7.19785" lon="-72.461128"><ele>1287.296</ele><time>2026-08-22T19:35:03Z</time></trkpt><trkpt lat="7.1978" lon="-72.461117"><ele>1287.534</ele><time>2026-08-22T19:35:20Z</time></trkpt><trkpt lat="7.197895" lon="-72.461258"><ele>1294.335</ele><time>2026-08-22T19:35:42Z</time></trkpt><trkpt lat="7.197868" lon="-72.46148"><ele>1298.862</ele><time>2026-08-22T19:36:33Z</time></trkpt><trkpt lat="7.19782" lon="-72.461435"><ele>1299.309</ele><time>2026-08-22T19:36:56Z</time></trkpt><trkpt lat="7.197872" lon="-72.461665"><ele>1304.436</ele><time>2026-08-22T19:38:09Z</time></trkpt><trkpt lat="7.198017" lon="-72.461838"><ele>1308.872</ele><time>2026-08-22T19:39:06Z</time></trkpt><trkpt lat="7.198093" lon="-72.461818"><ele>1308.845</ele><time>2026-08-22T19:39:23Z</time></trkpt><trkpt lat="7.198027" lon="-72.46176"><ele>1309.541</ele><time>2026-08-22T19:39:50Z</time></trkpt><trkpt lat="7.198025" lon="-72.461837"><ele>1309.776</ele><time>2026-08-22T19:40:11Z</time></trkpt><trkpt lat="7.197893" lon="-72.461827"><ele>1310.575</ele><time>2026-08-22T19:40:47Z</time></trkpt><trkpt lat="7.197805" lon="-72.461748"><ele>1312.382</ele><time>2026-08-22T19:41:08Z</time></trkpt><trkpt lat="7.197727" lon="-72.461827"><ele>1312.917</ele><time>2026-08-22T19:41:22Z</time></trkpt><trkpt lat="7.197643" lon="-72.461808"><ele>1314.577</ele><time>2026-08-22T19:41:32Z</time></trkpt><trkpt lat="7.197562" lon="-72.46193"><ele>1315.292</ele><time>2026-08-22T19:41:52Z</time></trkpt><trkpt lat="7.197525" lon="-72.462048"><ele>1320.109</ele><time>2026-08-22T19:42:10Z</time></trkpt><trkpt lat="7.197575" lon="-72.462148"><ele>1320.412</ele><time>2026-08-22T19:42:21Z</time></trkpt><trkpt lat="7.197458" lon="-72.462312"><ele>1320.097</ele><time>2026-08-22T19:42:46Z</time></trkpt><trkpt lat="7.197477" lon="-72.462407"><ele>1319.317</ele><time>2026-08-22T19:43:06Z</time></trkpt><trkpt lat="7.197327" lon="-72.462537"><ele>1319.312</ele><time>2026-08-22T19:43:30Z</time></trkpt><trkpt lat="7.197497" lon="-72.462715"><ele>1326.138</ele><time>2026-08-22T19:44:01Z</time></trkpt><trkpt lat="7.197465" lon="-72.462853"><ele>1323.153</ele><time>2026-08-22T19:44:52Z</time></trkpt><trkpt lat="7.197398" lon="-72.462832"><ele>1320.397</ele><time>2026-08-22T19:45:00Z</time></trkpt><trkpt lat="7.19732" lon="-72.46296"><ele>1316.785</ele><time>2026-08-22T19:45:27Z</time></trkpt><trkpt lat="7.197268" lon="-72.46295"><ele>1316.970</ele><time>2026-08-22T19:45:39Z</time></trkpt><trkpt lat="7.197378" lon="-72.46309"><ele>1319.623</ele><time>2026-08-22T19:46:25Z</time></trkpt><trkpt lat="7.197327" lon="-72.462992"><ele>1320.597</ele><time>2026-08-22T19:46:37Z</time></trkpt><trkpt lat="7.19724" lon="-72.46301"><ele>1323.809</ele><time>2026-08-22T19:46:52Z</time></trkpt><trkpt lat="7.197365" lon="-72.463075"><ele>1325.511</ele><time>2026-08-22T19:47:49Z</time></trkpt><trkpt lat="7.197212" lon="-72.46288"><ele>1329.009</ele><time>2026-08-22T19:48:37Z</time></trkpt><trkpt lat="7.197207" lon="-72.462938"><ele>1329.048</ele><time>2026-08-22T19:48:43Z</time></trkpt><trkpt lat="7.197175" lon="-72.46288"><ele>1329.096</ele><time>2026-08-22T19:48:46Z</time></trkpt><trkpt lat="7.197028" lon="-72.462848"><ele>1329.009</ele><time>2026-08-22T19:48:56Z</time></trkpt><trkpt lat="7.197118" lon="-72.462953"><ele>1329.817</ele><time>2026-08-22T19:49:10Z</time></trkpt><trkpt lat="7.197148" lon="-72.462897"><ele>1334.029</ele><time>2026-08-22T19:49:29Z</time></trkpt><trkpt lat="7.197227" lon="-72.462915"><ele>1341.716</ele><time>2026-08-22T19:50:12Z</time></trkpt><trkpt lat="7.197123" lon="-72.462965"><ele>1337.643</ele><time>2026-08-22T19:51:24Z</time></trkpt><trkpt lat="7.19714" lon="-72.462893"><ele>1338.051</ele><time>2026-08-22T19:51:34Z</time></trkpt><trkpt lat="7.197187" lon="-72.46292"><ele>1339.014</ele><time>2026-08-22T19:51:44Z</time></trkpt><trkpt lat="7.197247" lon="-72.463095"><ele>1340.332</ele><time>2026-08-22T19:51:59Z</time></trkpt><trkpt lat="7.197303" lon="-72.463125"><ele>1341.373</ele><time>2026-08-22T19:52:09Z</time></trkpt><trkpt lat="7.197348" lon="-72.463082"><ele>1341.567</ele><time>2026-08-22T19:52:19Z</time></trkpt><trkpt lat="7.197262" lon="-72.463038"><ele>1342.209</ele><time>2026-08-22T19:52:42Z</time></trkpt><trkpt lat="7.197265" lon="-72.463095"><ele>1342.267</ele><time>2026-08-22T19:52:51Z</time></trkpt><trkpt lat="7.197293" lon="-72.463055"><ele>1342.176</ele><time>2026-08-22T19:53:05Z</time></trkpt><trkpt lat="7.197228" lon="-72.462988"><ele>1342.115</ele><time>2026-08-22T19:53:12Z</time></trkpt><trkpt lat="7.197292" lon="-72.463103"><ele>1341.954</ele><time>2026-08-22T19:53:57Z</time></trkpt></trkseg></trk></gpx>