<?xml version="1.0" encoding="UTF-8"?><gpx creator="Wikiloc - http://www.wikiloc.com" version="1.1" xmlns="http://www.topografix.com/GPX/1/1" xmlns:xsi="http://www.w3.org/2001/XMLSchema-instance" xsi:schemaLocation="http://www.topografix.com/GPX/1/1 http://www.topografix.com/GPX/1/1/gpx.xsd"><wpt lat="7.213692" lon="-72.444682"><ele>1126.971</ele><name><![CDATA[Del puente a mano derecha entrada]]></name><cmt><![CDATA[Del puente a mano derecha entrada]]></cmt><desc><![CDATA[]]></desc><type>36</type></wpt><wpt lat="7.214763" lon="-72.446588"><ele>1102.642</ele><name><![CDATA[Entrada por Sola Estadero, cobran por el paso]]></name><cmt><![CDATA[Entrada por Sola Estadero, cobran por el paso]]></cmt><desc><![CDATA[]]></desc><type>95</type></wpt><wpt lat="7.215395" lon="-72.447625"><ele>1110.127</ele><name><![CDATA[Camino]]></name><cmt><![CDATA[Camino]]></cmt><desc><![CDATA[]]></desc><type>36</type></wpt><wpt lat="7.216003" lon="-72.449853"><ele>1119.087</ele><name><![CDATA[Llegada termales]]></name><cmt><![CDATA[Llegada termales]]></cmt><desc><![CDATA[]]></desc><type>95</type></wpt><trk><name><![CDATA[Bata]]></name><cmt><![CDATA[Bata]]></cmt><desc><![CDATA[Bata]]></desc><trkseg><trkpt lat="7.213638" lon="-72.444672"><ele>1125.941</ele><time>2026-08-22T21:44:06Z</time></trkpt><trkpt lat="7.213672" lon="-72.444673"><ele>1126.381</ele><time>2026-08-22T21:44:07Z</time></trkpt><trkpt lat="7.213693" lon="-72.444672"><ele>1126.809</ele><time>2026-08-22T21:44:08Z</time></trkpt><trkpt lat="7.213692" lon="-72.444682"><ele>1126.909</ele><time>2026-08-22T21:44:13Z</time></trkpt><trkpt lat="7.2137" lon="-72.44469"><ele>1127.086</ele><time>2026-08-22T21:44:14Z</time></trkpt><trkpt lat="7.21371" lon="-72.444693"><ele>1127.162</ele><time>2026-08-22T21:44:15Z</time></trkpt><trkpt lat="7.21372" lon="-72.444693"><ele>1127.275</ele><time>2026-08-22T21:44:19Z</time></trkpt><trkpt lat="7.213728" lon="-72.444687"><ele>1127.299</ele><time>2026-08-22T21:44:22Z</time></trkpt><trkpt lat="7.213735" lon="-72.44468"><ele>1127.334</ele><time>2026-08-22T21:44:25Z</time></trkpt><trkpt lat="7.213727" lon="-72.444685"><ele>1127.477</ele><time>2026-08-22T21:44:35Z</time></trkpt><trkpt lat="7.213727" lon="-72.4447"><ele>1127.583</ele><time>2026-08-22T21:44:37Z</time></trkpt><trkpt lat="7.213738" lon="-72.444708"><ele>1127.637</ele><time>2026-08-22T21:44:38Z</time></trkpt><trkpt lat="7.213757" lon="-72.444753"><ele>1127.513</ele><time>2026-08-22T21:44:44Z</time></trkpt><trkpt lat="7.21376" lon="-72.44477"><ele>1127.472</ele><time>2026-08-22T21:44:47Z</time></trkpt><trkpt lat="7.213757" lon="-72.444782"><ele>1127.313</ele><time>2026-08-22T21:44:49Z</time></trkpt><trkpt lat="7.213757" lon="-72.4448"><ele>1127.314</ele><time>2026-08-22T21:44:52Z</time></trkpt><trkpt lat="7.213757" lon="-72.444818"><ele>1127.409</ele><time>2026-08-22T21:44:53Z</time></trkpt><trkpt lat="7.213755" lon="-72.444843"><ele>1127.449</ele><time>2026-08-22T21:44:54Z</time></trkpt><trkpt lat="7.213762" lon="-72.444875"><ele>1127.575</ele><time>2026-08-22T21:44:55Z</time></trkpt><trkpt lat="7.21377" lon="-72.444902"><ele>1127.598</ele><time>2026-08-22T21:44:56Z</time></trkpt><trkpt lat="7.21379" lon="-72.444927"><ele>1127.532</ele><time>2026-08-22T21:44:57Z</time></trkpt><trkpt lat="7.21381" lon="-72.444952"><ele>1127.517</ele><time>2026-08-22T21:44:58Z</time></trkpt><trkpt lat="7.213822" lon="-72.444982"><ele>1127.590</ele><time>2026-08-22T21:44:59Z</time></trkpt><trkpt lat="7.213838" lon="-72.445013"><ele>1127.496</ele><time>2026-08-22T21:45:00Z</time></trkpt><trkpt lat="7.213843" lon="-72.44505"><ele>1127.440</ele><time>2026-08-22T21:45:01Z</time></trkpt><trkpt lat="7.213848" lon="-72.445088"><ele>1127.336</ele><time>2026-08-22T21:45:02Z</time></trkpt><trkpt lat="7.21386" lon="-72.445122"><ele>1127.337</ele><time>2026-08-22T21:45:03Z</time></trkpt><trkpt lat="7.21388" lon="-72.445153"><ele>1127.349</ele><time>2026-08-22T21:45:04Z</time></trkpt><trkpt lat="7.213897" lon="-72.445182"><ele>1127.313</ele><time>2026-08-22T21:45:05Z</time></trkpt><trkpt lat="7.213915" lon="-72.445212"><ele>1127.209</ele><time>2026-08-22T21:45:06Z</time></trkpt><trkpt lat="7.213933" lon="-72.445237"><ele>1127.215</ele><time>2026-08-22T21:45:07Z</time></trkpt><trkpt lat="7.213953" lon="-72.445268"><ele>1127.211</ele><time>2026-08-22T21:45:08Z</time></trkpt><trkpt lat="7.213968" lon="-72.445302"><ele>1127.134</ele><time>2026-08-22T21:45:09Z</time></trkpt><trkpt lat="7.213982" lon="-72.445338"><ele>1126.978</ele><time>2026-08-22T21:45:10Z</time></trkpt><trkpt lat="7.213995" lon="-72.44537"><ele>1126.253</ele><time>2026-08-22T21:45:11Z</time></trkpt><trkpt lat="7.21401" lon="-72.445402"><ele>1125.596</ele><time>2026-08-22T21:45:12Z</time></trkpt><trkpt lat="7.214025" lon="-72.445438"><ele>1124.942</ele><time>2026-08-22T21:45:13Z</time></trkpt><trkpt lat="7.214045" lon="-72.445463"><ele>1124.616</ele><time>2026-08-22T21:45:14Z</time></trkpt><trkpt lat="7.214057" lon="-72.445488"><ele>1124.052</ele><time>2026-08-22T21:45:15Z</time></trkpt><trkpt lat="7.214073" lon="-72.445517"><ele>1122.888</ele><time>2026-08-22T21:45:16Z</time></trkpt><trkpt lat="7.214092" lon="-72.445545"><ele>1121.524</ele><time>2026-08-22T21:45:17Z</time></trkpt><trkpt lat="7.214105" lon="-72.445585"><ele>1120.626</ele><time>2026-08-22T21:45:18Z</time></trkpt><trkpt lat="7.214117" lon="-72.445613"><ele>1120.109</ele><time>2026-08-22T21:45:19Z</time></trkpt><trkpt lat="7.214128" lon="-72.445647"><ele>1119.680</ele><time>2026-08-22T21:45:20Z</time></trkpt><trkpt lat="7.214138" lon="-72.44568"><ele>1119.256</ele><time>2026-08-22T21:45:21Z</time></trkpt><trkpt lat="7.214148" lon="-72.445722"><ele>1119.059</ele><time>2026-08-22T21:45:22Z</time></trkpt><trkpt lat="7.214162" lon="-72.445762"><ele>1118.923</ele><time>2026-08-22T21:45:23Z</time></trkpt><trkpt lat="7.214172" lon="-72.445803"><ele>1118.868</ele><time>2026-08-22T21:45:24Z</time></trkpt><trkpt lat="7.214185" lon="-72.445833"><ele>1118.771</ele><time>2026-08-22T21:45:25Z</time></trkpt><trkpt lat="7.214202" lon="-72.445857"><ele>1118.537</ele><time>2026-08-22T21:45:26Z</time></trkpt><trkpt lat="7.214217" lon="-72.445887"><ele>1118.381</ele><time>2026-08-22T21:45:27Z</time></trkpt><trkpt lat="7.214237" lon="-72.445913"><ele>1118.257</ele><time>2026-08-22T21:45:28Z</time></trkpt><trkpt lat="7.21426" lon="-72.445942"><ele>1118.146</ele><time>2026-08-22T21:45:29Z</time></trkpt><trkpt lat="7.214278" lon="-72.445963"><ele>1117.988</ele><time>2026-08-22T21:45:30Z</time></trkpt><trkpt lat="7.214298" lon="-72.445993"><ele>1117.716</ele><time>2026-08-22T21:45:31Z</time></trkpt><trkpt lat="7.214322" lon="-72.446028"><ele>1117.509</ele><time>2026-08-22T21:45:32Z</time></trkpt><trkpt lat="7.214337" lon="-72.446057"><ele>1117.216</ele><time>2026-08-22T21:45:33Z</time></trkpt><trkpt lat="7.214352" lon="-72.446087"><ele>1117.272</ele><time>2026-08-22T21:45:34Z</time></trkpt><trkpt lat="7.214362" lon="-72.446105"><ele>1117.135</ele><time>2026-08-22T21:45:35Z</time></trkpt><trkpt lat="7.214377" lon="-72.446128"><ele>1117.029</ele><time>2026-08-22T21:45:36Z</time></trkpt><trkpt lat="7.214388" lon="-72.446147"><ele>1117.054</ele><time>2026-08-22T21:45:37Z</time></trkpt><trkpt lat="7.214398" lon="-72.446168"><ele>1116.987</ele><time>2026-08-22T21:45:38Z</time></trkpt><trkpt lat="7.214412" lon="-72.44619"><ele>1116.793</ele><time>2026-08-22T21:45:39Z</time></trkpt><trkpt lat="7.21442" lon="-72.446207"><ele>1116.667</ele><time>2026-08-22T21:45:40Z</time></trkpt><trkpt lat="7.21443" lon="-72.446225"><ele>1116.383</ele><time>2026-08-22T21:45:41Z</time></trkpt><trkpt lat="7.21444" lon="-72.44624"><ele>1115.694</ele><time>2026-08-22T21:45:42Z</time></trkpt><trkpt lat="7.214457" lon="-72.44626"><ele>1115.057</ele><time>2026-08-22T21:45:43Z</time></trkpt><trkpt lat="7.21447" lon="-72.44628"><ele>1114.522</ele><time>2026-08-22T21:45:44Z</time></trkpt><trkpt lat="7.214488" lon="-72.446305"><ele>1114.309</ele><time>2026-08-22T21:45:45Z</time></trkpt><trkpt lat="7.214512" lon="-72.446327"><ele>1114.241</ele><time>2026-08-22T21:45:46Z</time></trkpt><trkpt lat="7.214537" lon="-72.446347"><ele>1114.137</ele><time>2026-08-22T21:45:47Z</time></trkpt><trkpt lat="7.214563" lon="-72.446367"><ele>1114.180</ele><time>2026-08-22T21:45:48Z</time></trkpt><trkpt lat="7.214587" lon="-72.446385"><ele>1114.054</ele><time>2026-08-22T21:45:49Z</time></trkpt><trkpt lat="7.214608" lon="-72.446408"><ele>1114.089</ele><time>2026-08-22T21:45:50Z</time></trkpt><trkpt lat="7.214627" lon="-72.446435"><ele>1114.022</ele><time>2026-08-22T21:45:51Z</time></trkpt><trkpt lat="7.214642" lon="-72.446462"><ele>1114.058</ele><time>2026-08-22T21:45:52Z</time></trkpt><trkpt lat="7.21465" lon="-72.446492"><ele>1114.082</ele><time>2026-08-22T21:45:53Z</time></trkpt><trkpt lat="7.214662" lon="-72.446515"><ele>1114.068</ele><time>2026-08-22T21:45:54Z</time></trkpt><trkpt lat="7.214673" lon="-72.446538"><ele>1114.066</ele><time>2026-08-22T21:45:55Z</time></trkpt><trkpt lat="7.21469" lon="-72.446553"><ele>1114.029</ele><time>2026-08-22T21:45:56Z</time></trkpt><trkpt lat="7.214702" lon="-72.446557"><ele>1114.021</ele><time>2026-08-22T21:45:57Z</time></trkpt><trkpt lat="7.214713" lon="-72.446558"><ele>1114.009</ele><time>2026-08-22T21:45:58Z</time></trkpt><trkpt lat="7.214723" lon="-72.446565"><ele>1114.048</ele><time>2026-08-22T21:46:01Z</time></trkpt><trkpt lat="7.214728" lon="-72.446573"><ele>1114.064</ele><time>2026-08-22T21:46:04Z</time></trkpt><trkpt lat="7.214735" lon="-72.446587"><ele>1114.017</ele><time>2026-08-22T21:46:06Z</time></trkpt><trkpt lat="7.214728" lon="-72.446625"><ele>1114.021</ele><time>2026-08-22T21:46:16Z</time></trkpt><trkpt lat="7.214725" lon="-72.44664"><ele>1114.116</ele><time>2026-08-22T21:46:17Z</time></trkpt><trkpt lat="7.214718" lon="-72.446647"><ele>1114.199</ele><time>2026-08-22T21:46:18Z</time></trkpt><trkpt lat="7.214708" lon="-72.446647"><ele>1114.165</ele><time>2026-08-22T21:46:23Z</time></trkpt><trkpt lat="7.214718" lon="-72.446623"><ele>1114.149</ele><time>2026-08-22T21:46:26Z</time></trkpt><trkpt lat="7.214728" lon="-72.44663"><ele>1114.295</ele><time>2026-08-22T21:46:32Z</time></trkpt><trkpt lat="7.214738" lon="-72.446632"><ele>1114.311</ele><time>2026-08-22T21:46:35Z</time></trkpt><trkpt lat="7.214752" lon="-72.446618"><ele>1114.321</ele><time>2026-08-22T21:46:37Z</time></trkpt><trkpt lat="7.214755" lon="-72.446607"><ele>1114.303</ele><time>2026-08-22T21:46:39Z</time></trkpt><trkpt lat="7.214762" lon="-72.446622"><ele>1114.309</ele><time>2026-08-22T21:46:43Z</time></trkpt><trkpt lat="7.214767" lon="-72.446642"><ele>1114.333</ele><time>2026-08-22T21:46:45Z</time></trkpt><trkpt lat="7.214773" lon="-72.446652"><ele>1114.249</ele><time>2026-08-22T21:46:47Z</time></trkpt><trkpt lat="7.214778" lon="-72.44666"><ele>1114.132</ele><time>2026-08-22T21:46:49Z</time></trkpt><trkpt lat="7.214787" lon="-72.446667"><ele>1114.176</ele><time>2026-08-22T21:46:51Z</time></trkpt><trkpt lat="7.214783" lon="-72.446683"><ele>1114.151</ele><time>2026-08-22T21:46:57Z</time></trkpt><trkpt lat="7.214698" lon="-72.446657"><ele>1114.164</ele><time>2026-08-22T21:47:23Z</time></trkpt><trkpt lat="7.214688" lon="-72.446662"><ele>1114.190</ele><time>2026-08-22T21:47:24Z</time></trkpt><trkpt lat="7.214678" lon="-72.446667"><ele>1114.114</ele><time>2026-08-22T21:47:25Z</time></trkpt><trkpt lat="7.214668" lon="-72.446668"><ele>1114.160</ele><time>2026-08-22T21:47:26Z</time></trkpt><trkpt lat="7.214668" lon="-72.446655"><ele>1114.191</ele><time>2026-08-22T21:47:29Z</time></trkpt><trkpt lat="7.214683" lon="-72.446653"><ele>1114.181</ele><time>2026-08-22T21:47:33Z</time></trkpt><trkpt lat="7.214693" lon="-72.446663"><ele>1114.119</ele><time>2026-08-22T21:47:35Z</time></trkpt><trkpt lat="7.214713" lon="-72.446667"><ele>1114.009</ele><time>2026-08-22T21:47:43Z</time></trkpt><trkpt lat="7.214723" lon="-72.44666"><ele>1113.531</ele><time>2026-08-22T21:47:46Z</time></trkpt><trkpt lat="7.214728" lon="-72.446673"><ele>1112.977</ele><time>2026-08-22T21:47:49Z</time></trkpt><trkpt lat="7.214727" lon="-72.446683"><ele>1112.420</ele><time>2026-08-22T21:47:52Z</time></trkpt><trkpt lat="7.214793" lon="-72.446618"><ele>1111.924</ele><time>2026-08-22T21:48:05Z</time></trkpt><trkpt lat="7.214785" lon="-72.446608"><ele>1111.539</ele><time>2026-08-22T21:48:07Z</time></trkpt><trkpt lat="7.214733" lon="-72.446687"><ele>1110.852</ele><time>2026-08-22T21:48:21Z</time></trkpt><trkpt lat="7.214727" lon="-72.446695"><ele>1110.228</ele><time>2026-08-22T21:48:23Z</time></trkpt><trkpt lat="7.21472" lon="-72.446667"><ele>1110.012</ele><time>2026-08-22T21:48:29Z</time></trkpt><trkpt lat="7.214722" lon="-72.446652"><ele>1109.968</ele><time>2026-08-22T21:48:31Z</time></trkpt><trkpt lat="7.214733" lon="-72.446642"><ele>1109.833</ele><time>2026-08-22T21:48:32Z</time></trkpt><trkpt lat="7.214763" lon="-72.446588"><ele>1109.423</ele><time>2026-08-22T21:48:51Z</time></trkpt><trkpt lat="7.21475" lon="-72.446562"><ele>1109.015</ele><time>2026-08-22T21:49:01Z</time></trkpt><trkpt lat="7.214748" lon="-72.44655"><ele>1108.909</ele><time>2026-08-22T21:49:02Z</time></trkpt><trkpt lat="7.21477" lon="-72.446553"><ele>1108.555</ele><time>2026-08-22T21:49:09Z</time></trkpt><trkpt lat="7.214778" lon="-72.446563"><ele>1108.281</ele><time>2026-08-22T21:49:10Z</time></trkpt><trkpt lat="7.214785" lon="-72.44657"><ele>1107.494</ele><time>2026-08-22T21:49:13Z</time></trkpt><trkpt lat="7.214783" lon="-72.446585"><ele>1106.258</ele><time>2026-08-22T21:49:15Z</time></trkpt><trkpt lat="7.21478" lon="-72.4466"><ele>1105.113</ele><time>2026-08-22T21:49:17Z</time></trkpt><trkpt lat="7.214783" lon="-72.446613"><ele>1104.556</ele><time>2026-08-22T21:49:18Z</time></trkpt><trkpt lat="7.214793" lon="-72.446658"><ele>1104.482</ele><time>2026-08-22T21:49:23Z</time></trkpt><trkpt lat="7.214793" lon="-72.446677"><ele>1104.386</ele><time>2026-08-22T21:49:24Z</time></trkpt><trkpt lat="7.214792" lon="-72.446692"><ele>1104.312</ele><time>2026-08-22T21:49:25Z</time></trkpt><trkpt lat="7.214782" lon="-72.446693"><ele>1104.355</ele><time>2026-08-22T21:49:28Z</time></trkpt><trkpt lat="7.214775" lon="-72.4467"><ele>1104.307</ele><time>2026-08-22T21:49:30Z</time></trkpt><trkpt lat="7.214765" lon="-72.446693"><ele>1104.317</ele><time>2026-08-22T21:49:32Z</time></trkpt><trkpt lat="7.214757" lon="-72.446702"><ele>1104.309</ele><time>2026-08-22T21:49:34Z</time></trkpt><trkpt lat="7.214747" lon="-72.446713"><ele>1104.397</ele><time>2026-08-22T21:49:36Z</time></trkpt><trkpt lat="7.214743" lon="-72.446695"><ele>1104.343</ele><time>2026-08-22T21:49:42Z</time></trkpt><trkpt lat="7.214735" lon="-72.44668"><ele>1104.346</ele><time>2026-08-22T21:49:43Z</time></trkpt><trkpt lat="7.214743" lon="-72.446655"><ele>1104.310</ele><time>2026-08-22T21:49:45Z</time></trkpt><trkpt lat="7.214747" lon="-72.446645"><ele>1104.375</ele><time>2026-08-22T21:49:47Z</time></trkpt><trkpt lat="7.214743" lon="-72.44663"><ele>1104.318</ele><time>2026-08-22T21:49:50Z</time></trkpt><trkpt lat="7.214742" lon="-72.446643"><ele>1104.374</ele><time>2026-08-22T21:49:52Z</time></trkpt><trkpt lat="7.214742" lon="-72.446665"><ele>1104.438</ele><time>2026-08-22T21:49:55Z</time></trkpt><trkpt lat="7.214753" lon="-72.446672"><ele>1104.554</ele><time>2026-08-22T21:49:56Z</time></trkpt><trkpt lat="7.214768" lon="-72.446685"><ele>1104.557</ele><time>2026-08-22T21:49:57Z</time></trkpt><trkpt lat="7.214783" lon="-72.446693"><ele>1105.000</ele><time>2026-08-22T21:49:58Z</time></trkpt><trkpt lat="7.214797" lon="-72.4467"><ele>1105.520</ele><time>2026-08-22T21:49:59Z</time></trkpt><trkpt lat="7.214808" lon="-72.446702"><ele>1105.509</ele><time>2026-08-22T21:50:00Z</time></trkpt><trkpt lat="7.214818" lon="-72.446705"><ele>1105.667</ele><time>2026-08-22T21:50:01Z</time></trkpt><trkpt lat="7.214828" lon="-72.446705"><ele>1105.633</ele><time>2026-08-22T21:50:02Z</time></trkpt><trkpt lat="7.214838" lon="-72.446705"><ele>1105.686</ele><time>2026-08-22T21:50:04Z</time></trkpt><trkpt lat="7.214848" lon="-72.44671"><ele>1105.750</ele><time>2026-08-22T21:50:06Z</time></trkpt><trkpt lat="7.214853" lon="-72.44672"><ele>1105.845</ele><time>2026-08-22T21:50:08Z</time></trkpt><trkpt lat="7.214858" lon="-72.446735"><ele>1105.828</ele><time>2026-08-22T21:50:10Z</time></trkpt><trkpt lat="7.214863" lon="-72.446743"><ele>1106.094</ele><time>2026-08-22T21:50:12Z</time></trkpt><trkpt lat="7.214868" lon="-72.446752"><ele>1106.218</ele><time>2026-08-22T21:50:17Z</time></trkpt><trkpt lat="7.214873" lon="-72.446763"><ele>1106.684</ele><time>2026-08-22T21:50:21Z</time></trkpt><trkpt lat="7.21488" lon="-72.44677"><ele>1107.041</ele><time>2026-08-22T21:50:24Z</time></trkpt><trkpt lat="7.214888" lon="-72.446775"><ele>1107.181</ele><time>2026-08-22T21:50:26Z</time></trkpt><trkpt lat="7.214897" lon="-72.44678"><ele>1107.209</ele><time>2026-08-22T21:50:28Z</time></trkpt><trkpt lat="7.214907" lon="-72.446788"><ele>1107.409</ele><time>2026-08-22T21:50:30Z</time></trkpt><trkpt lat="7.214915" lon="-72.446797"><ele>1107.996</ele><time>2026-08-22T21:50:32Z</time></trkpt><trkpt lat="7.214923" lon="-72.44681"><ele>1108.822</ele><time>2026-08-22T21:50:34Z</time></trkpt><trkpt lat="7.214933" lon="-72.446827"><ele>1109.565</ele><time>2026-08-22T21:50:36Z</time></trkpt><trkpt lat="7.214942" lon="-72.446843"><ele>1110.699</ele><time>2026-08-22T21:50:38Z</time></trkpt><trkpt lat="7.214955" lon="-72.446852"><ele>1111.954</ele><time>2026-08-22T21:50:40Z</time></trkpt><trkpt lat="7.21497" lon="-72.446862"><ele>1112.867</ele><time>2026-08-22T21:50:42Z</time></trkpt><trkpt lat="7.214977" lon="-72.446873"><ele>1113.783</ele><time>2026-08-22T21:50:44Z</time></trkpt><trkpt lat="7.214985" lon="-72.446878"><ele>1114.547</ele><time>2026-08-22T21:50:46Z</time></trkpt><trkpt lat="7.214993" lon="-72.446888"><ele>1115.343</ele><time>2026-08-22T21:50:48Z</time></trkpt><trkpt lat="7.215005" lon="-72.446895"><ele>1115.788</ele><time>2026-08-22T21:50:50Z</time></trkpt><trkpt lat="7.215015" lon="-72.446893"><ele>1115.724</ele><time>2026-08-22T21:50:51Z</time></trkpt><trkpt lat="7.215025" lon="-72.446893"><ele>1115.726</ele><time>2026-08-22T21:50:52Z</time></trkpt><trkpt lat="7.215035" lon="-72.446902"><ele>1115.709</ele><time>2026-08-22T21:50:54Z</time></trkpt><trkpt lat="7.215042" lon="-72.446913"><ele>1115.720</ele><time>2026-08-22T21:50:56Z</time></trkpt><trkpt lat="7.215048" lon="-72.446923"><ele>1115.786</ele><time>2026-08-22T21:50:57Z</time></trkpt><trkpt lat="7.215055" lon="-72.446933"><ele>1115.719</ele><time>2026-08-22T21:50:58Z</time></trkpt><trkpt lat="7.215062" lon="-72.446943"><ele>1115.783</ele><time>2026-08-22T21:50:59Z</time></trkpt><trkpt lat="7.215067" lon="-72.446952"><ele>1115.748</ele><time>2026-08-22T21:51:00Z</time></trkpt><trkpt lat="7.215073" lon="-72.446965"><ele>1115.721</ele><time>2026-08-22T21:51:01Z</time></trkpt><trkpt lat="7.21508" lon="-72.446978"><ele>1115.787</ele><time>2026-08-22T21:51:02Z</time></trkpt><trkpt lat="7.215088" lon="-72.44699"><ele>1115.791</ele><time>2026-08-22T21:51:03Z</time></trkpt><trkpt lat="7.215095" lon="-72.447"><ele>1115.797</ele><time>2026-08-22T21:51:04Z</time></trkpt><trkpt lat="7.215103" lon="-72.447008"><ele>1115.799</ele><time>2026-08-22T21:51:05Z</time></trkpt><trkpt lat="7.215113" lon="-72.447017"><ele>1115.707</ele><time>2026-08-22T21:51:06Z</time></trkpt><trkpt lat="7.215122" lon="-72.447028"><ele>1115.727</ele><time>2026-08-22T21:51:07Z</time></trkpt><trkpt lat="7.21513" lon="-72.447038"><ele>1115.609</ele><time>2026-08-22T21:51:08Z</time></trkpt><trkpt lat="7.215137" lon="-72.447047"><ele>1115.471</ele><time>2026-08-22T21:51:09Z</time></trkpt><trkpt lat="7.215145" lon="-72.447058"><ele>1115.177</ele><time>2026-08-22T21:51:10Z</time></trkpt><trkpt lat="7.215152" lon="-72.447067"><ele>1114.850</ele><time>2026-08-22T21:51:11Z</time></trkpt><trkpt lat="7.215162" lon="-72.447077"><ele>1114.774</ele><time>2026-08-22T21:51:12Z</time></trkpt><trkpt lat="7.21517" lon="-72.447088"><ele>1114.679</ele><time>2026-08-22T21:51:13Z</time></trkpt><trkpt lat="7.215173" lon="-72.4471"><ele>1114.612</ele><time>2026-08-22T21:51:14Z</time></trkpt><trkpt lat="7.215173" lon="-72.447112"><ele>1114.638</ele><time>2026-08-22T21:51:15Z</time></trkpt><trkpt lat="7.215177" lon="-72.447123"><ele>1114.432</ele><time>2026-08-22T21:51:16Z</time></trkpt><trkpt lat="7.21518" lon="-72.447133"><ele>1114.218</ele><time>2026-08-22T21:51:17Z</time></trkpt><trkpt lat="7.215183" lon="-72.447145"><ele>1114.175</ele><time>2026-08-22T21:51:18Z</time></trkpt><trkpt lat="7.215187" lon="-72.447157"><ele>1114.028</ele><time>2026-08-22T21:51:19Z</time></trkpt><trkpt lat="7.215188" lon="-72.447168"><ele>1113.820</ele><time>2026-08-22T21:51:20Z</time></trkpt><trkpt lat="7.215188" lon="-72.447178"><ele>1113.709</ele><time>2026-08-22T21:51:21Z</time></trkpt><trkpt lat="7.215187" lon="-72.44719"><ele>1113.719</ele><time>2026-08-22T21:51:23Z</time></trkpt><trkpt lat="7.215177" lon="-72.447185"><ele>1113.685</ele><time>2026-08-22T21:51:26Z</time></trkpt><trkpt lat="7.215183" lon="-72.447172"><ele>1113.478</ele><time>2026-08-22T21:51:31Z</time></trkpt><trkpt lat="7.215183" lon="-72.447158"><ele>1113.352</ele><time>2026-08-22T21:51:32Z</time></trkpt><trkpt lat="7.215178" lon="-72.44715"><ele>1113.387</ele><time>2026-08-22T21:51:33Z</time></trkpt><trkpt lat="7.215165" lon="-72.447143"><ele>1113.270</ele><time>2026-08-22T21:51:35Z</time></trkpt><trkpt lat="7.215155" lon="-72.447155"><ele>1113.126</ele><time>2026-08-22T21:51:36Z</time></trkpt><trkpt lat="7.215127" lon="-72.447157"><ele>1113.050</ele><time>2026-08-22T21:51:37Z</time></trkpt><trkpt lat="7.21511" lon="-72.447153"><ele>1112.976</ele><time>2026-08-22T21:51:38Z</time></trkpt><trkpt lat="7.215095" lon="-72.447155"><ele>1112.915</ele><time>2026-08-22T21:51:39Z</time></trkpt><trkpt lat="7.215075" lon="-72.447157"><ele>1112.865</ele><time>2026-08-22T21:51:40Z</time></trkpt><trkpt lat="7.215055" lon="-72.447152"><ele>1112.711</ele><time>2026-08-22T21:51:42Z</time></trkpt><trkpt lat="7.21504" lon="-72.447147"><ele>1112.709</ele><time>2026-08-22T21:51:43Z</time></trkpt><trkpt lat="7.215027" lon="-72.447148"><ele>1112.763</ele><time>2026-08-22T21:51:44Z</time></trkpt><trkpt lat="7.215015" lon="-72.44714"><ele>1112.739</ele><time>2026-08-22T21:51:45Z</time></trkpt><trkpt lat="7.215002" lon="-72.447133"><ele>1112.732</ele><time>2026-08-22T21:51:47Z</time></trkpt><trkpt lat="7.214992" lon="-72.447133"><ele>1112.736</ele><time>2026-08-22T21:51:49Z</time></trkpt><trkpt lat="7.21498" lon="-72.447133"><ele>1112.711</ele><time>2026-08-22T21:51:50Z</time></trkpt><trkpt lat="7.214963" lon="-72.44712"><ele>1112.724</ele><time>2026-08-22T21:51:52Z</time></trkpt><trkpt lat="7.214972" lon="-72.44713"><ele>1112.750</ele><time>2026-08-22T21:51:53Z</time></trkpt><trkpt lat="7.214942" lon="-72.447127"><ele>1112.754</ele><time>2026-08-22T21:51:55Z</time></trkpt><trkpt lat="7.214927" lon="-72.447123"><ele>1112.710</ele><time>2026-08-22T21:51:56Z</time></trkpt><trkpt lat="7.214938" lon="-72.447128"><ele>1112.774</ele><time>2026-08-22T21:51:57Z</time></trkpt><trkpt lat="7.214962" lon="-72.447138"><ele>1112.756</ele><time>2026-08-22T21:51:58Z</time></trkpt><trkpt lat="7.214972" lon="-72.447152"><ele>1112.721</ele><time>2026-08-22T21:51:59Z</time></trkpt><trkpt lat="7.214988" lon="-72.44717"><ele>1112.709</ele><time>2026-08-22T21:52:00Z</time></trkpt><trkpt lat="7.215023" lon="-72.447188"><ele>1112.779</ele><time>2026-08-22T21:52:01Z</time></trkpt><trkpt lat="7.215045" lon="-72.4472"><ele>1112.715</ele><time>2026-08-22T21:52:02Z</time></trkpt><trkpt lat="7.215057" lon="-72.447218"><ele>1112.748</ele><time>2026-08-22T21:52:03Z</time></trkpt><trkpt lat="7.215065" lon="-72.447238"><ele>1112.812</ele><time>2026-08-22T21:52:04Z</time></trkpt><trkpt lat="7.215083" lon="-72.447252"><ele>1112.947</ele><time>2026-08-22T21:52:05Z</time></trkpt><trkpt lat="7.215107" lon="-72.447265"><ele>1113.030</ele><time>2026-08-22T21:52:06Z</time></trkpt><trkpt lat="7.215118" lon="-72.447272"><ele>1113.136</ele><time>2026-08-22T21:52:07Z</time></trkpt><trkpt lat="7.215128" lon="-72.447273"><ele>1113.330</ele><time>2026-08-22T21:52:08Z</time></trkpt><trkpt lat="7.215117" lon="-72.447277"><ele>1113.446</ele><time>2026-08-22T21:52:09Z</time></trkpt><trkpt lat="7.215093" lon="-72.447253"><ele>1113.556</ele><time>2026-08-22T21:52:12Z</time></trkpt><trkpt lat="7.215168" lon="-72.44731"><ele>1113.659</ele><time>2026-08-22T21:52:13Z</time></trkpt><trkpt lat="7.215318" lon="-72.447392"><ele>1113.714</ele><time>2026-08-22T21:52:14Z</time></trkpt><trkpt lat="7.215377" lon="-72.447433"><ele>1113.809</ele><time>2026-08-22T21:52:15Z</time></trkpt><trkpt lat="7.215347" lon="-72.44742"><ele>1113.947</ele><time>2026-08-22T21:52:16Z</time></trkpt><trkpt lat="7.215335" lon="-72.44741"><ele>1113.953</ele><time>2026-08-22T21:52:17Z</time></trkpt><trkpt lat="7.215325" lon="-72.447412"><ele>1113.966</ele><time>2026-08-22T21:52:18Z</time></trkpt><trkpt lat="7.215335" lon="-72.447433"><ele>1113.950</ele><time>2026-08-22T21:52:20Z</time></trkpt><trkpt lat="7.21534" lon="-72.447453"><ele>1113.975</ele><time>2026-08-22T21:52:22Z</time></trkpt><trkpt lat="7.215342" lon="-72.447463"><ele>1113.998</ele><time>2026-08-22T21:52:23Z</time></trkpt><trkpt lat="7.215343" lon="-72.447475"><ele>1113.964</ele><time>2026-08-22T21:52:24Z</time></trkpt><trkpt lat="7.215347" lon="-72.447487"><ele>1113.918</ele><time>2026-08-22T21:52:25Z</time></trkpt><trkpt lat="7.215348" lon="-72.4475"><ele>1113.934</ele><time>2026-08-22T21:52:26Z</time></trkpt><trkpt lat="7.215355" lon="-72.447508"><ele>1113.941</ele><time>2026-08-22T21:52:27Z</time></trkpt><trkpt lat="7.215367" lon="-72.447522"><ele>1113.981</ele><time>2026-08-22T21:52:29Z</time></trkpt><trkpt lat="7.215375" lon="-72.447528"><ele>1113.909</ele><time>2026-08-22T21:52:30Z</time></trkpt><trkpt lat="7.215382" lon="-72.447535"><ele>1113.909</ele><time>2026-08-22T21:52:31Z</time></trkpt><trkpt lat="7.21539" lon="-72.447543"><ele>1113.946</ele><time>2026-08-22T21:52:32Z</time></trkpt><trkpt lat="7.215397" lon="-72.447557"><ele>1113.962</ele><time>2026-08-22T21:52:33Z</time></trkpt><trkpt lat="7.2154" lon="-72.447568"><ele>1113.855</ele><time>2026-08-22T21:52:34Z</time></trkpt><trkpt lat="7.215395" lon="-72.447583"><ele>1113.369</ele><time>2026-08-22T21:52:36Z</time></trkpt><trkpt lat="7.215392" lon="-72.447593"><ele>1112.414</ele><time>2026-08-22T21:52:37Z</time></trkpt><trkpt lat="7.215392" lon="-72.447608"><ele>1112.017</ele><time>2026-08-22T21:52:39Z</time></trkpt><trkpt lat="7.215398" lon="-72.447622"><ele>1111.993</ele><time>2026-08-22T21:52:41Z</time></trkpt><trkpt lat="7.215405" lon="-72.447632"><ele>1111.847</ele><time>2026-08-22T21:52:43Z</time></trkpt><trkpt lat="7.215395" lon="-72.447625"><ele>1111.783</ele><time>2026-08-22T21:52:45Z</time></trkpt><trkpt lat="7.21539" lon="-72.447617"><ele>1111.621</ele><time>2026-08-22T21:52:47Z</time></trkpt><trkpt lat="7.21539" lon="-72.447632"><ele>1111.541</ele><time>2026-08-22T21:52:49Z</time></trkpt><trkpt lat="7.215395" lon="-72.447643"><ele>1111.405</ele><time>2026-08-22T21:52:50Z</time></trkpt><trkpt lat="7.215403" lon="-72.447653"><ele>1111.409</ele><time>2026-08-22T21:52:51Z</time></trkpt><trkpt lat="7.215408" lon="-72.447665"><ele>1111.364</ele><time>2026-08-22T21:52:52Z</time></trkpt><trkpt lat="7.215417" lon="-72.447678"><ele>1111.360</ele><time>2026-08-22T21:52:53Z</time></trkpt><trkpt lat="7.21542" lon="-72.44769"><ele>1111.293</ele><time>2026-08-22T21:52:54Z</time></trkpt><trkpt lat="7.215428" lon="-72.447697"><ele>1111.217</ele><time>2026-08-22T21:52:55Z</time></trkpt><trkpt lat="7.215437" lon="-72.447702"><ele>1111.212</ele><time>2026-08-22T21:52:56Z</time></trkpt><trkpt lat="7.215445" lon="-72.44771"><ele>1111.255</ele><time>2026-08-22T21:52:57Z</time></trkpt><trkpt lat="7.215455" lon="-72.447718"><ele>1111.211</ele><time>2026-08-22T21:52:58Z</time></trkpt><trkpt lat="7.215462" lon="-72.447728"><ele>1111.235</ele><time>2026-08-22T21:52:59Z</time></trkpt><trkpt lat="7.21547" lon="-72.447738"><ele>1111.281</ele><time>2026-08-22T21:53:00Z</time></trkpt><trkpt lat="7.215475" lon="-72.447758"><ele>1111.168</ele><time>2026-08-22T21:53:02Z</time></trkpt><trkpt lat="7.21548" lon="-72.44777"><ele>1111.142</ele><time>2026-08-22T21:53:03Z</time></trkpt><trkpt lat="7.215483" lon="-72.447783"><ele>1111.126</ele><time>2026-08-22T21:53:04Z</time></trkpt><trkpt lat="7.215492" lon="-72.447795"><ele>1111.009</ele><time>2026-08-22T21:53:05Z</time></trkpt><trkpt lat="7.215497" lon="-72.447812"><ele>1110.928</ele><time>2026-08-22T21:53:07Z</time></trkpt><trkpt lat="7.215503" lon="-72.447822"><ele>1110.814</ele><time>2026-08-22T21:53:08Z</time></trkpt><trkpt lat="7.215508" lon="-72.447832"><ele>1110.817</ele><time>2026-08-22T21:53:09Z</time></trkpt><trkpt lat="7.21552" lon="-72.447847"><ele>1110.791</ele><time>2026-08-22T21:53:11Z</time></trkpt><trkpt lat="7.215525" lon="-72.447855"><ele>1110.716</ele><time>2026-08-22T21:53:12Z</time></trkpt><trkpt lat="7.215532" lon="-72.447863"><ele>1110.769</ele><time>2026-08-22T21:53:13Z</time></trkpt><trkpt lat="7.215538" lon="-72.447872"><ele>1110.665</ele><time>2026-08-22T21:53:14Z</time></trkpt><trkpt lat="7.215545" lon="-72.447892"><ele>1110.639</ele><time>2026-08-22T21:53:16Z</time></trkpt><trkpt lat="7.215548" lon="-72.447907"><ele>1110.615</ele><time>2026-08-22T21:53:17Z</time></trkpt><trkpt lat="7.215557" lon="-72.447917"><ele>1110.516</ele><time>2026-08-22T21:53:18Z</time></trkpt><trkpt lat="7.215568" lon="-72.44793"><ele>1110.376</ele><time>2026-08-22T21:53:19Z</time></trkpt><trkpt lat="7.215573" lon="-72.447945"><ele>1110.213</ele><time>2026-08-22T21:53:21Z</time></trkpt><trkpt lat="7.215587" lon="-72.447953"><ele>1110.309</ele><time>2026-08-22T21:53:23Z</time></trkpt><trkpt lat="7.215602" lon="-72.447968"><ele>1110.553</ele><time>2026-08-22T21:53:25Z</time></trkpt><trkpt lat="7.215593" lon="-72.447978"><ele>1110.639</ele><time>2026-08-22T21:53:26Z</time></trkpt><trkpt lat="7.215588" lon="-72.44799"><ele>1110.672</ele><time>2026-08-22T21:53:27Z</time></trkpt><trkpt lat="7.215578" lon="-72.448"><ele>1110.716</ele><time>2026-08-22T21:53:28Z</time></trkpt><trkpt lat="7.21557" lon="-72.448007"><ele>1110.871</ele><time>2026-08-22T21:53:29Z</time></trkpt><trkpt lat="7.215563" lon="-72.448015"><ele>1110.934</ele><time>2026-08-22T21:53:30Z</time></trkpt><trkpt lat="7.21555" lon="-72.448028"><ele>1110.950</ele><time>2026-08-22T21:53:32Z</time></trkpt><trkpt lat="7.215543" lon="-72.448037"><ele>1110.954</ele><time>2026-08-22T21:53:33Z</time></trkpt><trkpt lat="7.215545" lon="-72.448057"><ele>1110.980</ele><time>2026-08-22T21:53:35Z</time></trkpt><trkpt lat="7.21555" lon="-72.448067"><ele>1110.988</ele><time>2026-08-22T21:53:36Z</time></trkpt><trkpt lat="7.21556" lon="-72.448073"><ele>1110.924</ele><time>2026-08-22T21:53:37Z</time></trkpt><trkpt lat="7.215578" lon="-72.448083"><ele>1110.926</ele><time>2026-08-22T21:53:39Z</time></trkpt><trkpt lat="7.21558" lon="-72.448095"><ele>1110.909</ele><time>2026-08-22T21:53:40Z</time></trkpt><trkpt lat="7.21558" lon="-72.448107"><ele>1110.930</ele><time>2026-08-22T21:53:41Z</time></trkpt><trkpt lat="7.215585" lon="-72.448118"><ele>1111.066</ele><time>2026-08-22T21:53:42Z</time></trkpt><trkpt lat="7.215588" lon="-72.448133"><ele>1111.589</ele><time>2026-08-22T21:53:43Z</time></trkpt><trkpt lat="7.215593" lon="-72.448147"><ele>1111.973</ele><time>2026-08-22T21:53:44Z</time></trkpt><trkpt lat="7.2156" lon="-72.448158"><ele>1112.258</ele><time>2026-08-22T21:53:45Z</time></trkpt><trkpt lat="7.215607" lon="-72.448172"><ele>1112.311</ele><time>2026-08-22T21:53:46Z</time></trkpt><trkpt lat="7.215608" lon="-72.448183"><ele>1112.347</ele><time>2026-08-22T21:53:47Z</time></trkpt><trkpt lat="7.21561" lon="-72.448193"><ele>1112.451</ele><time>2026-08-22T21:53:49Z</time></trkpt><trkpt lat="7.215622" lon="-72.448202"><ele>1112.567</ele><time>2026-08-22T21:53:51Z</time></trkpt><trkpt lat="7.215618" lon="-72.448212"><ele>1112.651</ele><time>2026-08-22T21:53:52Z</time></trkpt><trkpt lat="7.215625" lon="-72.448225"><ele>1112.701</ele><time>2026-08-22T21:53:54Z</time></trkpt><trkpt lat="7.215617" lon="-72.448237"><ele>1112.711</ele><time>2026-08-22T21:53:56Z</time></trkpt><trkpt lat="7.215607" lon="-72.448245"><ele>1112.809</ele><time>2026-08-22T21:53:58Z</time></trkpt><trkpt lat="7.215613" lon="-72.448252"><ele>1112.987</ele><time>2026-08-22T21:54:01Z</time></trkpt><trkpt lat="7.215623" lon="-72.448262"><ele>1112.973</ele><time>2026-08-22T21:54:04Z</time></trkpt><trkpt lat="7.215637" lon="-72.448263"><ele>1113.086</ele><time>2026-08-22T21:54:06Z</time></trkpt><trkpt lat="7.215647" lon="-72.448267"><ele>1113.250</ele><time>2026-08-22T21:54:11Z</time></trkpt><trkpt lat="7.215657" lon="-72.44826"><ele>1113.315</ele><time>2026-08-22T21:54:13Z</time></trkpt><trkpt lat="7.215665" lon="-72.448267"><ele>1113.568</ele><time>2026-08-22T21:54:15Z</time></trkpt><trkpt lat="7.215663" lon="-72.448278"><ele>1113.644</ele><time>2026-08-22T21:54:17Z</time></trkpt><trkpt lat="7.215645" lon="-72.448287"><ele>1113.878</ele><time>2026-08-22T21:54:19Z</time></trkpt><trkpt lat="7.215623" lon="-72.44829"><ele>1114.064</ele><time>2026-08-22T21:54:21Z</time></trkpt><trkpt lat="7.215613" lon="-72.44829"><ele>1114.342</ele><time>2026-08-22T21:54:22Z</time></trkpt><trkpt lat="7.215602" lon="-72.448288"><ele>1114.522</ele><time>2026-08-22T21:54:23Z</time></trkpt><trkpt lat="7.215585" lon="-72.448288"><ele>1114.614</ele><time>2026-08-22T21:54:25Z</time></trkpt><trkpt lat="7.21557" lon="-72.448282"><ele>1114.609</ele><time>2026-08-22T21:54:27Z</time></trkpt><trkpt lat="7.215563" lon="-72.448275"><ele>1114.816</ele><time>2026-08-22T21:54:30Z</time></trkpt><trkpt lat="7.215552" lon="-72.448278"><ele>1115.032</ele><time>2026-08-22T21:54:32Z</time></trkpt><trkpt lat="7.215563" lon="-72.448273"><ele>1115.415</ele><time>2026-08-22T21:54:36Z</time></trkpt><trkpt lat="7.215577" lon="-72.448267"><ele>1115.929</ele><time>2026-08-22T21:54:39Z</time></trkpt><trkpt lat="7.215593" lon="-72.448262"><ele>1116.294</ele><time>2026-08-22T21:54:40Z</time></trkpt><trkpt lat="7.215608" lon="-72.448253"><ele>1116.467</ele><time>2026-08-22T21:54:41Z</time></trkpt><trkpt lat="7.215617" lon="-72.448247"><ele>1116.413</ele><time>2026-08-22T21:54:42Z</time></trkpt><trkpt lat="7.215623" lon="-72.448237"><ele>1116.517</ele><time>2026-08-22T21:54:43Z</time></trkpt><trkpt lat="7.21563" lon="-72.44823"><ele>1116.533</ele><time>2026-08-22T21:54:46Z</time></trkpt><trkpt lat="7.21564" lon="-72.448233"><ele>1116.638</ele><time>2026-08-22T21:54:48Z</time></trkpt><trkpt lat="7.21561" lon="-72.448242"><ele>1116.770</ele><time>2026-08-22T21:54:52Z</time></trkpt><trkpt lat="7.215598" lon="-72.448252"><ele>1116.717</ele><time>2026-08-22T21:54:56Z</time></trkpt><trkpt lat="7.215587" lon="-72.44826"><ele>1116.709</ele><time>2026-08-22T21:54:57Z</time></trkpt><trkpt lat="7.215577" lon="-72.448268"><ele>1116.725</ele><time>2026-08-22T21:54:58Z</time></trkpt><trkpt lat="7.215587" lon="-72.448267"><ele>1116.791</ele><time>2026-08-22T21:55:00Z</time></trkpt><trkpt lat="7.215597" lon="-72.448267"><ele>1116.744</ele><time>2026-08-22T21:55:01Z</time></trkpt><trkpt lat="7.215613" lon="-72.448268"><ele>1116.768</ele><time>2026-08-22T21:55:02Z</time></trkpt><trkpt lat="7.215633" lon="-72.44827"><ele>1116.793</ele><time>2026-08-22T21:55:03Z</time></trkpt><trkpt lat="7.215642" lon="-72.448282"><ele>1116.736</ele><time>2026-08-22T21:55:05Z</time></trkpt><trkpt lat="7.215623" lon="-72.448287"><ele>1116.752</ele><time>2026-08-22T21:55:06Z</time></trkpt><trkpt lat="7.215632" lon="-72.448293"><ele>1116.766</ele><time>2026-08-22T21:55:07Z</time></trkpt><trkpt lat="7.215647" lon="-72.448302"><ele>1116.732</ele><time>2026-08-22T21:55:08Z</time></trkpt><trkpt lat="7.215658" lon="-72.448317"><ele>1116.794</ele><time>2026-08-22T21:55:09Z</time></trkpt><trkpt lat="7.215663" lon="-72.448333"><ele>1116.757</ele><time>2026-08-22T21:55:10Z</time></trkpt><trkpt lat="7.215665" lon="-72.448348"><ele>1116.722</ele><time>2026-08-22T21:55:11Z</time></trkpt><trkpt lat="7.215667" lon="-72.448362"><ele>1116.709</ele><time>2026-08-22T21:55:12Z</time></trkpt><trkpt lat="7.215675" lon="-72.44838"><ele>1116.721</ele><time>2026-08-22T21:55:13Z</time></trkpt><trkpt lat="7.215655" lon="-72.448397"><ele>1116.687</ele><time>2026-08-22T21:55:14Z</time></trkpt><trkpt lat="7.21566" lon="-72.448415"><ele>1116.580</ele><time>2026-08-22T21:55:15Z</time></trkpt><trkpt lat="7.21567" lon="-72.448423"><ele>1116.444</ele><time>2026-08-22T21:55:16Z</time></trkpt><trkpt lat="7.21568" lon="-72.44843"><ele>1116.379</ele><time>2026-08-22T21:55:17Z</time></trkpt><trkpt lat="7.215692" lon="-72.44844"><ele>1116.182</ele><time>2026-08-22T21:55:18Z</time></trkpt><trkpt lat="7.215678" lon="-72.448457"><ele>1115.828</ele><time>2026-08-22T21:55:19Z</time></trkpt><trkpt lat="7.215685" lon="-72.448472"><ele>1115.262</ele><time>2026-08-22T21:55:20Z</time></trkpt><trkpt lat="7.21569" lon="-72.448482"><ele>1114.828</ele><time>2026-08-22T21:55:21Z</time></trkpt><trkpt lat="7.215667" lon="-72.448495"><ele>1114.775</ele><time>2026-08-22T21:55:22Z</time></trkpt><trkpt lat="7.21567" lon="-72.448515"><ele>1114.728</ele><time>2026-08-22T21:55:24Z</time></trkpt><trkpt lat="7.215633" lon="-72.448528"><ele>1114.720</ele><time>2026-08-22T21:55:25Z</time></trkpt><trkpt lat="7.215637" lon="-72.448538"><ele>1114.709</ele><time>2026-08-22T21:55:27Z</time></trkpt><trkpt lat="7.215643" lon="-72.448547"><ele>1114.699</ele><time>2026-08-22T21:55:29Z</time></trkpt><trkpt lat="7.21565" lon="-72.448558"><ele>1114.645</ele><time>2026-08-22T21:55:30Z</time></trkpt><trkpt lat="7.215653" lon="-72.44857"><ele>1114.648</ele><time>2026-08-22T21:55:31Z</time></trkpt><trkpt lat="7.215648" lon="-72.448588"><ele>1114.672</ele><time>2026-08-22T21:55:33Z</time></trkpt><trkpt lat="7.215653" lon="-72.448598"><ele>1114.577</ele><time>2026-08-22T21:55:34Z</time></trkpt><trkpt lat="7.215657" lon="-72.448615"><ele>1114.550</ele><time>2026-08-22T21:55:36Z</time></trkpt><trkpt lat="7.215657" lon="-72.448627"><ele>1114.566</ele><time>2026-08-22T21:55:38Z</time></trkpt><trkpt lat="7.215668" lon="-72.448643"><ele>1114.580</ele><time>2026-08-22T21:55:43Z</time></trkpt><trkpt lat="7.215685" lon="-72.448643"><ele>1114.596</ele><time>2026-08-22T21:55:44Z</time></trkpt><trkpt lat="7.215695" lon="-72.448648"><ele>1114.587</ele><time>2026-08-22T21:55:45Z</time></trkpt><trkpt lat="7.215698" lon="-72.448663"><ele>1114.442</ele><time>2026-08-22T21:55:47Z</time></trkpt><trkpt lat="7.215688" lon="-72.448678"><ele>1114.426</ele><time>2026-08-22T21:55:48Z</time></trkpt><trkpt lat="7.215683" lon="-72.448695"><ele>1114.309</ele><time>2026-08-22T21:55:49Z</time></trkpt><trkpt lat="7.215682" lon="-72.44871"><ele>1114.220</ele><time>2026-08-22T21:55:50Z</time></trkpt><trkpt lat="7.215675" lon="-72.448737"><ele>1114.246</ele><time>2026-08-22T21:55:51Z</time></trkpt><trkpt lat="7.215675" lon="-72.448755"><ele>1114.219</ele><time>2026-08-22T21:55:52Z</time></trkpt><trkpt lat="7.215677" lon="-72.448767"><ele>1114.213</ele><time>2026-08-22T21:55:53Z</time></trkpt><trkpt lat="7.215655" lon="-72.448777"><ele>1114.298</ele><time>2026-08-22T21:55:55Z</time></trkpt><trkpt lat="7.215638" lon="-72.448785"><ele>1114.361</ele><time>2026-08-22T21:55:56Z</time></trkpt><trkpt lat="7.21563" lon="-72.448795"><ele>1114.397</ele><time>2026-08-22T21:55:57Z</time></trkpt><trkpt lat="7.21562" lon="-72.448808"><ele>1114.341</ele><time>2026-08-22T21:55:58Z</time></trkpt><trkpt lat="7.215608" lon="-72.448815"><ele>1114.347</ele><time>2026-08-22T21:55:59Z</time></trkpt><trkpt lat="7.215602" lon="-72.448823"><ele>1114.329</ele><time>2026-08-22T21:56:00Z</time></trkpt><trkpt lat="7.215617" lon="-72.44882"><ele>1114.300</ele><time>2026-08-22T21:56:01Z</time></trkpt><trkpt lat="7.215603" lon="-72.448828"><ele>1114.320</ele><time>2026-08-22T21:56:04Z</time></trkpt><trkpt lat="7.2156" lon="-72.448838"><ele>1114.309</ele><time>2026-08-22T21:56:06Z</time></trkpt><trkpt lat="7.215593" lon="-72.448847"><ele>1114.344</ele><time>2026-08-22T21:56:07Z</time></trkpt><trkpt lat="7.215582" lon="-72.44885"><ele>1114.330</ele><time>2026-08-22T21:56:08Z</time></trkpt><trkpt lat="7.215572" lon="-72.44886"><ele>1114.353</ele><time>2026-08-22T21:56:10Z</time></trkpt><trkpt lat="7.215558" lon="-72.448865"><ele>1114.547</ele><time>2026-08-22T21:56:12Z</time></trkpt><trkpt lat="7.215558" lon="-72.448883"><ele>1114.532</ele><time>2026-08-22T21:56:14Z</time></trkpt><trkpt lat="7.215555" lon="-72.448893"><ele>1114.685</ele><time>2026-08-22T21:56:17Z</time></trkpt><trkpt lat="7.215552" lon="-72.448883"><ele>1114.631</ele><time>2026-08-22T21:56:19Z</time></trkpt><trkpt lat="7.215542" lon="-72.448882"><ele>1114.665</ele><time>2026-08-22T21:56:20Z</time></trkpt><trkpt lat="7.215533" lon="-72.448888"><ele>1114.761</ele><time>2026-08-22T21:56:23Z</time></trkpt><trkpt lat="7.215523" lon="-72.44889"><ele>1114.777</ele><time>2026-08-22T21:56:24Z</time></trkpt><trkpt lat="7.215515" lon="-72.448902"><ele>1114.761</ele><time>2026-08-22T21:56:25Z</time></trkpt><trkpt lat="7.215503" lon="-72.448907"><ele>1114.827</ele><time>2026-08-22T21:56:27Z</time></trkpt><trkpt lat="7.215498" lon="-72.448918"><ele>1115.109</ele><time>2026-08-22T21:56:29Z</time></trkpt><trkpt lat="7.215493" lon="-72.44893"><ele>1115.359</ele><time>2026-08-22T21:56:31Z</time></trkpt><trkpt lat="7.215492" lon="-72.448942"><ele>1115.325</ele><time>2026-08-22T21:56:32Z</time></trkpt><trkpt lat="7.215483" lon="-72.448955"><ele>1115.368</ele><time>2026-08-22T21:56:33Z</time></trkpt><trkpt lat="7.21548" lon="-72.448973"><ele>1115.312</ele><time>2026-08-22T21:56:34Z</time></trkpt><trkpt lat="7.215473" lon="-72.448985"><ele>1115.377</ele><time>2026-08-22T21:56:35Z</time></trkpt><trkpt lat="7.215483" lon="-72.448998"><ele>1115.380</ele><time>2026-08-22T21:56:37Z</time></trkpt><trkpt lat="7.21549" lon="-72.449005"><ele>1115.326</ele><time>2026-08-22T21:56:39Z</time></trkpt><trkpt lat="7.215508" lon="-72.449007"><ele>1115.360</ele><time>2026-08-22T21:56:41Z</time></trkpt><trkpt lat="7.21552" lon="-72.449015"><ele>1115.396</ele><time>2026-08-22T21:56:44Z</time></trkpt><trkpt lat="7.21552" lon="-72.44903"><ele>1115.338</ele><time>2026-08-22T21:56:46Z</time></trkpt><trkpt lat="7.215527" lon="-72.449047"><ele>1115.370</ele><time>2026-08-22T21:56:48Z</time></trkpt><trkpt lat="7.215537" lon="-72.449053"><ele>1115.317</ele><time>2026-08-22T21:56:49Z</time></trkpt><trkpt lat="7.215523" lon="-72.449067"><ele>1115.309</ele><time>2026-08-22T21:56:51Z</time></trkpt><trkpt lat="7.215505" lon="-72.44907"><ele>1115.345</ele><time>2026-08-22T21:56:54Z</time></trkpt><trkpt lat="7.215513" lon="-72.44908"><ele>1115.351</ele><time>2026-08-22T21:56:56Z</time></trkpt><trkpt lat="7.215503" lon="-72.44909"><ele>1115.334</ele><time>2026-08-22T21:56:58Z</time></trkpt><trkpt lat="7.215503" lon="-72.4491"><ele>1115.468</ele><time>2026-08-22T21:57:00Z</time></trkpt><trkpt lat="7.215508" lon="-72.449112"><ele>1115.493</ele><time>2026-08-22T21:57:04Z</time></trkpt><trkpt lat="7.215505" lon="-72.449123"><ele>1115.486</ele><time>2026-08-22T21:57:06Z</time></trkpt><trkpt lat="7.21551" lon="-72.44914"><ele>1115.412</ele><time>2026-08-22T21:57:08Z</time></trkpt><trkpt lat="7.215512" lon="-72.449153"><ele>1115.576</ele><time>2026-08-22T21:57:10Z</time></trkpt><trkpt lat="7.215513" lon="-72.449163"><ele>1115.542</ele><time>2026-08-22T21:57:12Z</time></trkpt><trkpt lat="7.215523" lon="-72.449167"><ele>1115.517</ele><time>2026-08-22T21:57:13Z</time></trkpt><trkpt lat="7.215535" lon="-72.449177"><ele>1115.587</ele><time>2026-08-22T21:57:16Z</time></trkpt><trkpt lat="7.215523" lon="-72.449188"><ele>1115.515</ele><time>2026-08-22T21:57:18Z</time></trkpt><trkpt lat="7.215543" lon="-72.449193"><ele>1115.509</ele><time>2026-08-22T21:57:22Z</time></trkpt><trkpt lat="7.215557" lon="-72.449192"><ele>1115.583</ele><time>2026-08-22T21:57:23Z</time></trkpt><trkpt lat="7.215572" lon="-72.449192"><ele>1115.549</ele><time>2026-08-22T21:57:24Z</time></trkpt><trkpt lat="7.215583" lon="-72.449193"><ele>1115.572</ele><time>2026-08-22T21:57:25Z</time></trkpt><trkpt lat="7.215572" lon="-72.449203"><ele>1115.776</ele><time>2026-08-22T21:57:27Z</time></trkpt><trkpt lat="7.215595" lon="-72.449203"><ele>1115.831</ele><time>2026-08-22T21:57:29Z</time></trkpt><trkpt lat="7.215618" lon="-72.449207"><ele>1116.084</ele><time>2026-08-22T21:57:31Z</time></trkpt><trkpt lat="7.21563" lon="-72.449203"><ele>1116.370</ele><time>2026-08-22T21:57:32Z</time></trkpt><trkpt lat="7.215638" lon="-72.449195"><ele>1116.694</ele><time>2026-08-22T21:57:33Z</time></trkpt><trkpt lat="7.215662" lon="-72.449187"><ele>1116.890</ele><time>2026-08-22T21:57:34Z</time></trkpt><trkpt lat="7.21567" lon="-72.449173"><ele>1117.047</ele><time>2026-08-22T21:57:35Z</time></trkpt><trkpt lat="7.215682" lon="-72.449168"><ele>1117.129</ele><time>2026-08-22T21:57:36Z</time></trkpt><trkpt lat="7.215698" lon="-72.44916"><ele>1117.421</ele><time>2026-08-22T21:57:38Z</time></trkpt><trkpt lat="7.215712" lon="-72.449152"><ele>1117.609</ele><time>2026-08-22T21:57:39Z</time></trkpt><trkpt lat="7.215732" lon="-72.449147"><ele>1117.996</ele><time>2026-08-22T21:57:40Z</time></trkpt><trkpt lat="7.215753" lon="-72.449143"><ele>1118.162</ele><time>2026-08-22T21:57:41Z</time></trkpt><trkpt lat="7.215772" lon="-72.44915"><ele>1118.365</ele><time>2026-08-22T21:57:43Z</time></trkpt><trkpt lat="7.215777" lon="-72.449165"><ele>1118.599</ele><time>2026-08-22T21:57:45Z</time></trkpt><trkpt lat="7.21577" lon="-72.449177"><ele>1118.914</ele><time>2026-08-22T21:57:46Z</time></trkpt><trkpt lat="7.215758" lon="-72.44919"><ele>1119.587</ele><time>2026-08-22T21:57:48Z</time></trkpt><trkpt lat="7.215757" lon="-72.4492"><ele>1119.923</ele><time>2026-08-22T21:57:49Z</time></trkpt><trkpt lat="7.215745" lon="-72.449215"><ele>1119.937</ele><time>2026-08-22T21:57:50Z</time></trkpt><trkpt lat="7.21573" lon="-72.449228"><ele>1120.043</ele><time>2026-08-22T21:57:51Z</time></trkpt><trkpt lat="7.215713" lon="-72.449245"><ele>1120.324</ele><time>2026-08-22T21:57:52Z</time></trkpt><trkpt lat="7.215708" lon="-72.449258"><ele>1120.504</ele><time>2026-08-22T21:57:54Z</time></trkpt><trkpt lat="7.215698" lon="-72.449272"><ele>1120.714</ele><time>2026-08-22T21:57:56Z</time></trkpt><trkpt lat="7.215702" lon="-72.449282"><ele>1121.209</ele><time>2026-08-22T21:57:57Z</time></trkpt><trkpt lat="7.215712" lon="-72.449292"><ele>1121.854</ele><time>2026-08-22T21:57:59Z</time></trkpt><trkpt lat="7.215722" lon="-72.449288"><ele>1122.480</ele><time>2026-08-22T21:58:01Z</time></trkpt><trkpt lat="7.215735" lon="-72.449288"><ele>1122.983</ele><time>2026-08-22T21:58:03Z</time></trkpt><trkpt lat="7.215743" lon="-72.449295"><ele>1123.777</ele><time>2026-08-22T21:58:04Z</time></trkpt><trkpt lat="7.21575" lon="-72.449305"><ele>1124.812</ele><time>2026-08-22T21:58:05Z</time></trkpt><trkpt lat="7.215772" lon="-72.449302"><ele>1125.625</ele><time>2026-08-22T21:58:07Z</time></trkpt><trkpt lat="7.215793" lon="-72.44929"><ele>1126.631</ele><time>2026-08-22T21:58:08Z</time></trkpt><trkpt lat="7.216017" lon="-72.449575"><ele>1124.445</ele><time>2026-08-22T22:00:29Z</time></trkpt><trkpt lat="7.216028" lon="-72.449565"><ele>1124.421</ele><time>2026-08-22T22:00:30Z</time></trkpt><trkpt lat="7.216017" lon="-72.449577"><ele>1124.442</ele><time>2026-08-22T22:00:32Z</time></trkpt><trkpt lat="7.215963" lon="-72.449572"><ele>1124.422</ele><time>2026-08-22T22:00:33Z</time></trkpt><trkpt lat="7.215925" lon="-72.449572"><ele>1124.514</ele><time>2026-08-22T22:00:34Z</time></trkpt><trkpt lat="7.215885" lon="-72.44955"><ele>1124.409</ele><time>2026-08-22T22:00:35Z</time></trkpt><trkpt lat="7.215863" lon="-72.449563"><ele>1124.456</ele><time>2026-08-22T22:00:36Z</time></trkpt><trkpt lat="7.215858" lon="-72.449573"><ele>1124.432</ele><time>2026-08-22T22:00:37Z</time></trkpt><trkpt lat="7.215865" lon="-72.449583"><ele>1124.525</ele><time>2026-08-22T22:00:38Z</time></trkpt><trkpt lat="7.215878" lon="-72.449603"><ele>1124.589</ele><time>2026-08-22T22:00:39Z</time></trkpt><trkpt lat="7.21587" lon="-72.449613"><ele>1124.584</ele><time>2026-08-22T22:00:40Z</time></trkpt><trkpt lat="7.215853" lon="-72.449617"><ele>1124.587</ele><time>2026-08-22T22:00:41Z</time></trkpt><trkpt lat="7.215875" lon="-72.449618"><ele>1124.543</ele><time>2026-08-22T22:00:44Z</time></trkpt><trkpt lat="7.215935" lon="-72.449788"><ele>1124.537</ele><time>2026-08-22T22:00:45Z</time></trkpt><trkpt lat="7.215957" lon="-72.449842"><ele>1124.543</ele><time>2026-08-22T22:00:46Z</time></trkpt><trkpt lat="7.21596" lon="-72.449872"><ele>1124.539</ele><time>2026-08-22T22:00:47Z</time></trkpt><trkpt lat="7.215937" lon="-72.449857"><ele>1124.501</ele><time>2026-08-22T22:00:48Z</time></trkpt><trkpt lat="7.21591" lon="-72.44985"><ele>1124.521</ele><time>2026-08-22T22:00:49Z</time></trkpt><trkpt lat="7.215882" lon="-72.449848"><ele>1124.509</ele><time>2026-08-22T22:00:50Z</time></trkpt><trkpt lat="7.215863" lon="-72.449845"><ele>1124.545</ele><time>2026-08-22T22:00:51Z</time></trkpt><trkpt lat="7.215862" lon="-72.449855"><ele>1124.581</ele><time>2026-08-22T22:00:54Z</time></trkpt><trkpt lat="7.215872" lon="-72.449853"><ele>1124.544</ele><time>2026-08-22T22:00:55Z</time></trkpt><trkpt lat="7.215882" lon="-72.449853"><ele>1124.598</ele><time>2026-08-22T22:00:56Z</time></trkpt><trkpt lat="7.215892" lon="-72.449855"><ele>1124.553</ele><time>2026-08-22T22:00:57Z</time></trkpt><trkpt lat="7.215937" lon="-72.44985"><ele>1124.516</ele><time>2026-08-22T22:01:02Z</time></trkpt><trkpt lat="7.215955" lon="-72.449848"><ele>1124.562</ele><time>2026-08-22T22:01:03Z</time></trkpt><trkpt lat="7.21597" lon="-72.449837"><ele>1124.536</ele><time>2026-08-22T22:01:05Z</time></trkpt><trkpt lat="7.215957" lon="-72.449842"><ele>1124.422</ele><time>2026-08-22T22:01:08Z</time></trkpt><trkpt lat="7.215968" lon="-72.449847"><ele>1124.451</ele><time>2026-08-22T22:01:10Z</time></trkpt><trkpt lat="7.21598" lon="-72.449848"><ele>1124.401</ele><time>2026-08-22T22:01:11Z</time></trkpt><trkpt lat="7.215988" lon="-72.449853"><ele>1124.411</ele><time>2026-08-22T22:01:12Z</time></trkpt><trkpt lat="7.216003" lon="-72.449853"><ele>1124.409</ele><time>2026-08-22T22:01:13Z</time></trkpt><trkpt lat="7.216015" lon="-72.449857"><ele>1124.217</ele><time>2026-08-22T22:01:14Z</time></trkpt><trkpt lat="7.216005" lon="-72.449858"><ele>1124.083</ele><time>2026-08-22T22:01:15Z</time></trkpt><trkpt lat="7.215993" lon="-72.449868"><ele>1123.846</ele><time>2026-08-22T22:01:17Z</time></trkpt><trkpt lat="7.215988" lon="-72.44986"><ele>1123.550</ele><time>2026-08-22T22:01:23Z</time></trkpt></trkseg></trk></gpx>